[{"Licence number":"LIQC300200310","Licence name":"Bardwell Valley Golf Club","Address":"2A Hillcrest Ave","Suburb":"BARDWELL VALLEY","Postcode":2207,"Latitude":-33.9378,"Longitude":151.1275,"lgaIdNSW":"10500","EGMs":10},{"Licence number":"LIQC300225135","Licence name":"Arncliffe Scots Sports & Social Club Limited","Address":"29 Burrows St","Suburb":"ARNCLIFFE","Postcode":2205,"Latitude":-33.9363,"Longitude":151.148,"lgaIdNSW":"10500","EGMs":40},{"Licence number":"LIQC300225747","Licence name":"Bexley Golf Club","Address":"203 Stoney Creek Rd","Suburb":"KINGSGROVE","Postcode":2208,"Latitude":-33.9493,"Longitude":151.1069,"lgaIdNSW":"10500","EGMs":10},{"Licence number":"LIQC300225763","Licence name":"Bexley RSL & Community Club Limited","Address":"24 Stoney Creek Rd","Suburb":"BEXLEY","Postcode":2207,"Latitude":-33.9494,"Longitude":151.1248,"lgaIdNSW":"10500","EGMs":95},{"Licence number":"LIQC300225895","Licence name":"Hillsdale Bowling & Recreation Club","Address":"47 Rhodes St","Suburb":"HILLSDALE","Postcode":2036,"Latitude":-33.9519,"Longitude":151.2259,"lgaIdNSW":"10500","EGMs":18},{"Licence number":"LIQC300225976","Licence name":"Brighton-Le-Sands RSL Club Ltd","Address":"351 Bay St","Suburb":"BRIGHTON-LE-SANDS","Postcode":2216,"Latitude":-33.9609,"Longitude":151.1556,"lgaIdNSW":"10500","EGMs":95},{"Licence number":"LIQC300227014","Licence name":"EBP RSL","Address":"Hartill-Law Ave","Suburb":"BARDWELL PARK","Postcode":2207,"Latitude":-33.9312,"Longitude":151.1247,"lgaIdNSW":"10500","EGMs":204},{"Licence number":"LIQC300227154","Licence name":"Eastlake Golf Club Limited","Address":"Gardeners Rd","Suburb":"KINGSFORD","Postcode":2032,"Latitude":-33.9259,"Longitude":151.2212,"lgaIdNSW":"10500","EGMs":10},{"Licence number":"LIQC300227391","Licence name":"Georges River 16Ft Sailing Club Co-op Limited","Address":"2 Sanoni Ave","Suburb":"SANDRINGHAM","Postcode":2219,"Latitude":-33.9966,"Longitude":151.144,"lgaIdNSW":"10500","EGMs":40},{"Licence number":"LIQC300227480","Licence name":"Eastlakes Sports Club Limited","Address":"16 Florence Ave","Suburb":"EASTLAKES","Postcode":2018,"Latitude":-33.9259,"Longitude":151.2146,"lgaIdNSW":"10500","EGMs":6},{"Licence number":"LIQC300227812","Licence name":"Rockdale Tennis Club","Address":"71 Chapel St","Suburb":"ROCKDALE","Postcode":2216,"Latitude":-33.957,"Longitude":151.1414,"lgaIdNSW":"10500","EGMs":39},{"Licence number":"LIQC300227960","Licence name":"Kingsgrove RSL Club Ltd","Address":"4 Brocklehurst Lane","Suburb":"KINGSGROVE","Postcode":2208,"Latitude":-33.9417,"Longitude":151.1023,"lgaIdNSW":"10500","EGMs":138},{"Licence number":"LIQC300227987","Licence name":"Kogarah Golf Club","Address":"19 Marsh St","Suburb":"ARNCLIFFE","Postcode":2205,"Latitude":-33.9338,"Longitude":151.1596,"lgaIdNSW":"10500","EGMs":4},{"Licence number":"LIQC300228762","Licence name":"Moorefield Bowling and Sports Club Limited","Address":"40-54 French St","Suburb":"KOGARAH","Postcode":2217,"Latitude":-33.9618,"Longitude":151.1424,"lgaIdNSW":"10500","EGMs":13},{"Licence number":"LIQC300229696","Licence name":"Ramsgate RSL Memorial Club Limited","Address":"Ramsgate Rd & Chuter Ave","Suburb":"RAMSGATE","Postcode":2217,"Latitude":-33.9859,"Longitude":151.143,"lgaIdNSW":"10500","EGMs":228},{"Licence number":"LIQC300229882","Licence name":"Rockdale Businessmen's Club Limited","Address":"32 Bay St","Suburb":"ROCKDALE","Postcode":2216,"Latitude":-33.9529,"Longitude":151.1383,"lgaIdNSW":"10500","EGMs":30},{"Licence number":"LIQC300230309","Licence name":"South Sydney Graphic Arts Club Limited","Address":"182 Coward St","Suburb":"MASCOT","Postcode":2020,"Latitude":-33.9246,"Longitude":151.1923,"lgaIdNSW":"10500","EGMs":41},{"Licence number":"LIQC300230449","Licence name":"St George Rowing Club","Address":"1 Levey St","Suburb":"WOLLI CREEK","Postcode":2205,"Latitude":-33.9332,"Longitude":151.1585,"lgaIdNSW":"10500","EGMs":38}]
