[{"Licence number":"LIQC300200132","Licence name":"Tura Beach Country Club","Address":"The Fairway","Suburb":"TURA BEACH","Postcode":2548,"Latitude":-36.866,"Longitude":149.9233,"lgaIdNSW":"10550","EGMs":37},{"Licence number":"LIQC300235459","Licence name":"Club Bega","Address":"82 Gipps St","Suburb":"BEGA","Postcode":2550,"Latitude":-36.673,"Longitude":149.8438,"lgaIdNSW":"10550","EGMs":33},{"Licence number":"LIQC300235483","Licence name":"Bermagui Country Club","Address":"Tuross St","Suburb":"BERMAGUI","Postcode":2546,"Latitude":-36.4282,"Longitude":150.0738,"lgaIdNSW":"10550","EGMs":46},{"Licence number":"LIQC300235505","Licence name":"Tathra Beach Bowling Club Limited","Address":"Dilkera Rd","Suburb":"TATHRA","Postcode":2550,"Latitude":-36.7275,"Longitude":149.9796,"lgaIdNSW":"10550","EGMs":42},{"Licence number":"LIQC300237281","Licence name":"Merimbula-Imlay Bowling Club Limited","Address":"119 Main St","Suburb":"MERIMBULA","Postcode":2548,"Latitude":-36.8852,"Longitude":149.9096,"lgaIdNSW":"10550","EGMs":94},{"Licence number":"LIQC300237303","Licence name":"Merimbula RSL Club Limited","Address":"52-54 Main St","Suburb":"MERIMBULA","Postcode":2548,"Latitude":-36.887,"Longitude":149.9119,"lgaIdNSW":"10550","EGMs":122},{"Licence number":"LIQC300245942","Licence name":"Tathra Beach Country Club Limited","Address":"241 Andy Poole Dr","Suburb":"TATHRA","Postcode":2550,"Latitude":-36.7087,"Longitude":149.9735,"lgaIdNSW":"10550","EGMs":20},{"Licence number":"LIQC324007350","Licence name":"Eden Gardens Country Club","Address":"Princes Hwy","Suburb":"EDEN","Postcode":2551,"Latitude":-37.0467,"Longitude":149.8977,"lgaIdNSW":"10550","EGMs":60},{"Licence number":"LIQC324007358","Licence name":"Bega Country Club","Address":"Tarraganda Lane","Suburb":"TARRAGANDA","Postcode":2550,"Latitude":-36.6698,"Longitude":149.8657,"lgaIdNSW":"10550","EGMs":8}]
