[{"Licence number":"LIQC300241661","Licence name":"Blackheath Golf Club Ltd","Address":"Brightlands Ave","Suburb":"BLACKHEATH","Postcode":2785,"Latitude":-33.6483,"Longitude":150.2879,"lgaIdNSW":"10900","EGMs":10},{"Licence number":"LIQC300241718","Licence name":"Glenbrook Panthers","Address":"1 Hare St","Suburb":"GLENBROOK","Postcode":2773,"Latitude":-33.7634,"Longitude":150.6204,"lgaIdNSW":"10900","EGMs":53},{"Licence number":"LIQC300241734","Licence name":"Hazelbrook Bowling & Sporting Club Co-operative Limited","Address":"21A Lester Ave","Suburb":"HAZELBROOK","Postcode":2779,"Latitude":-33.7178,"Longitude":150.4487,"lgaIdNSW":"10900","EGMs":14},{"Licence number":"LIQC300241750","Licence name":"Katoomba RSL","Address":"86 Lurline St","Suburb":"KATOOMBA","Postcode":2780,"Latitude":-33.7191,"Longitude":150.3125,"lgaIdNSW":"10900","EGMs":94},{"Licence number":"LIQC300241777","Licence name":"Lawson Bowling Club Ltd","Address":"2 Loftus St","Suburb":"LAWSON","Postcode":2783,"Latitude":-33.7183,"Longitude":150.4305,"lgaIdNSW":"10900","EGMs":18},{"Licence number":"LIQC300241793","Licence name":"Leura Golf Club","Address":"Sublime Point Rd","Suburb":"LEURA","Postcode":2780,"Latitude":-33.7209,"Longitude":150.3497,"lgaIdNSW":"10900","EGMs":41},{"Licence number":"LIQC300241874","Licence name":"Springwood Sports Club","Address":"83 Macquarie Rd","Suburb":"SPRINGWOOD","Postcode":2777,"Latitude":-33.6987,"Longitude":150.5698,"lgaIdNSW":"10900","EGMs":77},{"Licence number":"LIQC300241882","Licence name":"Springwood Country Club Ltd","Address":"70-84 Hawkesbury Rd","Suburb":"SPRINGWOOD","Postcode":2777,"Latitude":-33.688,"Longitude":150.58,"lgaIdNSW":"10900","EGMs":9},{"Licence number":"LIQC300241947","Licence name":"Wentworth Falls Country Club Limited","Address":"206-220 Blaxland Rd","Suburb":"WENTWORTH FALLS","Postcode":2782,"Latitude":-33.6968,"Longitude":150.3629,"lgaIdNSW":"10900","EGMs":14}]
