[{"Licence number":"LIQC300200655","Licence name":"Mullumbimby Rugby League Football Club","Address":"Lot 8 Off Argyle St","Suburb":"MULLUMBIMBY","Postcode":2482,"Latitude":-28.5517,"Longitude":153.5141,"lgaIdNSW":"11350","EGMs":4},{"Licence number":"LIQC300239624","Licence name":"Bangalow Bowling & Sports Club Ltd","Address":"Byron bay Rd","Suburb":"BANGALOW","Postcode":2479,"Latitude":-28.6828,"Longitude":153.5312,"lgaIdNSW":"11350","EGMs":3},{"Licence number":"LIQC300239632","Licence name":"Brunswick Heads Bowling Club","Address":"Pacific Hwy","Suburb":"BRUNSWICK HEADS","Postcode":2483,"Latitude":-28.5506,"Longitude":153.5475,"lgaIdNSW":"11350","EGMs":33},{"Licence number":"LIQC300239640","Licence name":"Byron Bay Bowling & Recreation Club Limited","Address":"18-20 Marvel St","Suburb":"BYRON BAY","Postcode":2481,"Latitude":-28.6463,"Longitude":153.6153,"lgaIdNSW":"11350","EGMs":19},{"Licence number":"LIQC300239659","Licence name":"Byron Bay Golf Club","Address":"62 Broken Head Rd","Suburb":"BYRON BAY","Postcode":2481,"Latitude":-28.6735,"Longitude":153.6076,"lgaIdNSW":"11350","EGMs":15},{"Licence number":"LIQC300239713","Licence name":"Mullumbimby Ex-Services Club","Address":"Dalley St","Suburb":"MULLUMBIMBY","Postcode":2482,"Latitude":-28.5521,"Longitude":153.5002,"lgaIdNSW":"11350","EGMs":59},{"Licence number":"LIQC300239721","Licence name":"Mullumbimby Golf Club Ltd","Address":"1600 Coolamon Scenic Dr","Suburb":"MULLUMBIMBY","Postcode":2482,"Latitude":-28.5681,"Longitude":153.4934,"lgaIdNSW":"11350","EGMs":6},{"Licence number":"LIQC300245381","Licence name":"Ocean Shores Country Club","Address":"Orana Rd","Suburb":"OCEAN SHORES","Postcode":2483,"Latitude":-28.519,"Longitude":153.5454,"lgaIdNSW":"11350","EGMs":30},{"Licence number":"LIQC300245837","Licence name":"Byron Bay Services Club","Address":"132 Jonson St","Suburb":"BYRON BAY","Postcode":2481,"Latitude":-28.6493,"Longitude":153.6125,"lgaIdNSW":"11350","EGMs":68}]
