[{"Licence number":"LIQC300236900","Licence name":"Canowindra Bowling Club Ltd","Address":"64 Ryall St","Suburb":"CANOWINDRA","Postcode":2804,"Latitude":-33.5602,"Longitude":148.6626,"lgaIdNSW":"11400","EGMs":8},{"Licence number":"LIQC300236919","Licence name":"Canowindra Golf Club Ltd","Address":"Orange Rd","Suburb":"CANOWINDRA","Postcode":2804,"Latitude":-33.5568,"Longitude":148.669,"lgaIdNSW":"11400","EGMs":10},{"Licence number":"LIQC300236927","Licence name":"Canowindra Services & Citizens Club Limited","Address":"93 Gaskill Street","Suburb":"CANOWINDRA","Postcode":2804,"Latitude":-33.564,"Longitude":148.6598,"lgaIdNSW":"11400","EGMs":17},{"Licence number":"LIQC300237311","Licence name":"Eugowra Community Bowls and Recreation Club Limited","Address":"Hill St","Suburb":"EUGOWRA","Postcode":2806,"Latitude":-33.4244,"Longitude":148.3684,"lgaIdNSW":"11400","EGMs":4},{"Licence number":"LIQC300239292","Licence name":"Cudal Bowling Club","Address":"Brown St","Suburb":"CUDAL","Postcode":2864,"Latitude":-33.2882,"Longitude":148.7371,"lgaIdNSW":"11400","EGMs":5},{"Licence number":"LIQC300239306","Licence name":"Cumnock Bowling Club Ltd","Address":"44 Obley St","Suburb":"CUMNOCK","Postcode":2867,"Latitude":-32.9298,"Longitude":148.754,"lgaIdNSW":"11400","EGMs":10},{"Licence number":"LIQC300239314","Licence name":"Manildra Bowling Club Ltd","Address":"Kiewa St","Suburb":"MANILDRA","Postcode":2865,"Latitude":-33.1863,"Longitude":148.6916,"lgaIdNSW":"11400","EGMs":5},{"Licence number":"LIQC300239322","Licence name":"Manildra Golf Club","Address":"Orange St","Suburb":"MANILDRA","Postcode":2865,"Latitude":-33.1795,"Longitude":148.6906,"lgaIdNSW":"11400","EGMs":4},{"Licence number":"LIQC300239330","Licence name":"Molong Bowling Club Ltd","Address":"Euchareena Rd","Suburb":"MOLONG","Postcode":2866,"Latitude":-33.0914,"Longitude":148.8729,"lgaIdNSW":"11400","EGMs":7},{"Licence number":"LIQC300239357","Licence name":"Molong RSL Club Ltd","Address":"Gidley & Ridell Sts","Suburb":"MOLONG","Postcode":2866,"Latitude":-33.0942,"Longitude":148.8677,"lgaIdNSW":"11400","EGMs":14},{"Licence number":"LIQC300239365","Licence name":"Yeoval Bowling Club Limited","Address":"1 Bathurst St","Suburb":"YEOVAL","Postcode":2868,"Latitude":-32.7496,"Longitude":148.647,"lgaIdNSW":"11400","EGMs":8}]
