[{"Licence number":"LIQC300227839","Licence name":"Ingleburn Bowling and Recreation Club Co Operative Limited","Address":"8 Memorial Ave","Suburb":"INGLEBURN","Postcode":2565,"Latitude":-33.996,"Longitude":150.8632,"lgaIdNSW":"11500","EGMs":38},{"Licence number":"LIQC300227847","Licence name":"Ingleburn RSL Sub-Branch Club Limited","Address":"70 Chester Rd","Suburb":"INGLEBURN","Postcode":2565,"Latitude":-34.0087,"Longitude":150.8698,"lgaIdNSW":"11500","EGMs":236},{"Licence number":"LIQC300236463","Licence name":"Campbelltown City Bowling Club Co-operative Limited","Address":"Cnr Browne & Howe Sts","Suburb":"CAMPBELLTOWN","Postcode":2560,"Latitude":-34.0657,"Longitude":150.8165,"lgaIdNSW":"11500","EGMs":12},{"Licence number":"LIQC300236471","Licence name":"Campbelltown Golf Club","Address":"1 Golf Course Dr","Suburb":"GLEN ALPINE","Postcode":2560,"Latitude":-34.0843,"Longitude":150.7855,"lgaIdNSW":"11500","EGMs":20},{"Licence number":"LIQC300236498","Licence name":"Campbelltown RSL Club Limited","Address":"5 Cordeaux St","Suburb":"CAMPBELLTOWN","Postcode":2560,"Latitude":-34.0669,"Longitude":150.8156,"lgaIdNSW":"11500","EGMs":192},{"Licence number":"LIQC300244695","Licence name":"Campbelltown Catholic Club Ltd","Address":"20-22 Camden Rd","Suburb":"CAMPBELLTOWN","Postcode":2560,"Latitude":-34.0723,"Longitude":150.8072,"lgaIdNSW":"11500","EGMs":523},{"Licence number":"LIQC300245217","Licence name":"Western Suburbs League Club (Campbelltown) Ltd","Address":"10 Old Leumeah Rd","Suburb":"LEUMEAH","Postcode":2560,"Latitude":-34.0516,"Longitude":150.8331,"lgaIdNSW":"11500","EGMs":488},{"Licence number":"LIQC330010008","Licence name":"New South Wales Harness Racing Club Limited Menangle Park Paceway","Address":"Racecourse Ave","Suburb":"MENANGLE PARK","Postcode":2563,"Latitude":-34.1015,"Longitude":150.7447,"lgaIdNSW":"11500","EGMs":15},{"Licence number":"LIQC330019636","Licence name":"Menangle Country Club","Address":"170 MENANGLE RD","Suburb":"MENANGLE PARK","Postcode":2563,"Latitude":-34.1087,"Longitude":150.7476,"lgaIdNSW":"11500","EGMs":39}]
