[{"Licence number":"LIQC300226549","Licence name":"Club Concord","Address":"Central Park Wellbank Street","Suburb":"CONCORD","Postcode":2137,"Latitude":-33.8563,"Longitude":151.0954,"lgaIdNSW":"11520","EGMs":5},{"Licence number":"LIQC300226999","Licence name":"Drummoyne Sailing Club","Address":"2 St Georges Cres","Suburb":"DRUMMOYNE","Postcode":2047,"Latitude":-33.8539,"Longitude":151.1627,"lgaIdNSW":"11520","EGMs":43},{"Licence number":"LIQC300227316","Licence name":"Five Dock RSL Community Club Limited","Address":"66 Great North Rd","Suburb":"FIVE DOCK","Postcode":2046,"Latitude":-33.8699,"Longitude":151.1297,"lgaIdNSW":"11520","EGMs":180},{"Licence number":"LIQC300227537","Licence name":"Briars Sports","Address":"Wellbank St & Ian Pde","Suburb":"CONCORD","Postcode":2137,"Latitude":-33.8558,"Longitude":151.107,"lgaIdNSW":"11520","EGMs":41},{"Licence number":"LIQC300228614","Licence name":"Massey Park Golf Club Ltd","Address":"1 Ian Pde","Suburb":"CONCORD","Postcode":2137,"Latitude":-33.8529,"Longitude":151.1095,"lgaIdNSW":"11520","EGMs":33},{"Licence number":"LIQC300230627","Licence name":"Sydney Rowing Club Limited","Address":"613 Great North Rd","Suburb":"ABBOTSFORD","Postcode":2046,"Latitude":-33.8445,"Longitude":151.1278,"lgaIdNSW":"11520","EGMs":38},{"Licence number":"LIQC300230937","Licence name":"Western Suburbs Soccer, Sports & Community Club Limited","Address":"4 William St","Suburb":"FIVE DOCK","Postcode":2046,"Latitude":-33.8657,"Longitude":151.1212,"lgaIdNSW":"11520","EGMs":164},{"Licence number":"LIQC300231445","Licence name":"Barnwell Park Golf Club Limited","Address":"551 Lyons Rd","Suburb":"FIVE DOCK","Postcode":2046,"Latitude":-33.8651,"Longitude":151.119,"lgaIdNSW":"11520","EGMs":11}]
