[{"Licence number":"LIQC300225534","Licence name":"Bankstown City Bowling & Recreation Club","Address":"41 Northam Ave","Suburb":"BANKSTOWN","Postcode":2200,"Latitude":-33.9191,"Longitude":151.0302,"lgaIdNSW":"11570","EGMs":30},{"Licence number":"LIQC300225550","Licence name":"Bankstown Sports Club","Address":"8 Greenfield Pde","Suburb":"BANKSTOWN","Postcode":2200,"Latitude":-33.9196,"Longitude":151.0343,"lgaIdNSW":"11570","EGMs":745},{"Licence number":"LIQC300225577","Licence name":"Bankstown RSL Club Ltd","Address":"1 Meredith St","Suburb":"BANKSTOWN","Postcode":2200,"Latitude":-33.9165,"Longitude":151.0318,"lgaIdNSW":"11570","EGMs":187},{"Licence number":"LIQC300225585","Licence name":"Club Condell Park","Address":"178 Eldridge Rd","Suburb":"CONDELL PARK","Postcode":2200,"Latitude":-33.931,"Longitude":151.0092,"lgaIdNSW":"11570","EGMs":167},{"Licence number":"LIQC300225623","Licence name":"Belfield Bowling & Recreation Club Ltd","Address":"8 Margaret St","Suburb":"BELFIELD","Postcode":2191,"Latitude":-33.9006,"Longitude":151.0885,"lgaIdNSW":"11570","EGMs":11},{"Licence number":"LIQC300225771","Licence name":"Birrong Bowling & Sports Club Ltd","Address":"Gascoigne & Rodd Sts","Suburb":"BIRRONG","Postcode":2143,"Latitude":-33.8908,"Longitude":151.0166,"lgaIdNSW":"11570","EGMs":125},{"Licence number":"LIQC300226158","Licence name":"Campsie RSL Sub-branch Club Limited","Address":"25 Anglo Rd","Suburb":"CAMPSIE","Postcode":2194,"Latitude":-33.9112,"Longitude":151.1015,"lgaIdNSW":"11570","EGMs":204},{"Licence number":"LIQC300226166","Licence name":"Campsie South Bowling & Recreation Club Limited","Address":"Alfred St","Suburb":"CLEMTON PARK","Postcode":2206,"Latitude":-33.9258,"Longitude":151.1038,"lgaIdNSW":"11570","EGMs":12},{"Licence number":"LIQC300226174","Licence name":"Canterbury League Club Ltd","Address":"26 Bridge Rd","Suburb":"BELMORE","Postcode":2192,"Latitude":-33.9186,"Longitude":151.0874,"lgaIdNSW":"11570","EGMs":590},{"Licence number":"LIQC300226204","Licence name":"Canterbury Hurlstone Park RSL Club","Address":"20-26 Canterbury Rd","Suburb":"HURLSTONE PARK","Postcode":2193,"Latitude":-33.9059,"Longitude":151.1282,"lgaIdNSW":"11570","EGMs":348},{"Licence number":"LIQC300226409","Licence name":"Chester Hill RSL and Bowling Club Co-operative Limited","Address":"Chester HIll Rd & Proctor Pde","Suburb":"CHESTER HILL","Postcode":2162,"Latitude":-33.8859,"Longitude":150.9999,"lgaIdNSW":"11570","EGMs":110},{"Licence number":"LIQC300227022","Licence name":"Earlwood Bowling & Rec Club","Address":"'Earlwood Park' Woolcott St","Suburb":"EARLWOOD","Postcode":2206,"Latitude":-33.9245,"Longitude":151.1187,"lgaIdNSW":"11570","EGMs":74},{"Licence number":"LIQC300227529","Licence name":"Greenacre Bowling & Recreation Club Co-operative Ltd","Address":"231 Roberts Rd","Suburb":"GREENACRE","Postcode":2190,"Latitude":-33.9058,"Longitude":151.0648,"lgaIdNSW":"11570","EGMs":66},{"Licence number":"LIQC300227545","Licence name":"Greyhound Social Club Limited","Address":"140 Rookwood Rd","Suburb":"YAGOONA","Postcode":2199,"Latitude":-33.8965,"Longitude":151.037,"lgaIdNSW":"11570","EGMs":25},{"Licence number":"LIQC300228053","Licence name":"The Lakemba Club","Address":"26 Quigg St","Suburb":"LAKEMBA","Postcode":2195,"Latitude":-33.9198,"Longitude":151.0789,"lgaIdNSW":"11570","EGMs":100},{"Licence number":"LIQC300228851","Licence name":"Mount Lewis Bowling Club Co Op","Address":"14 Waterloo Rd","Suburb":"MOUNT LEWIS","Postcode":2190,"Latitude":-33.916,"Longitude":151.0557,"lgaIdNSW":"11570","EGMs":67},{"Licence number":"LIQC300228894","Licence name":"MOXON SPORTS CLUB","Address":"61 Moxon Rd","Suburb":"PUNCHBOWL","Postcode":2196,"Latitude":-33.9388,"Longitude":151.0432,"lgaIdNSW":"11570","EGMs":39},{"Licence number":"LIQC300229343","Licence name":"Padstow Bowling & Recreation Club","Address":"Iberia St","Suburb":"PADSTOW","Postcode":2211,"Latitude":-33.9499,"Longitude":151.0319,"lgaIdNSW":"11570","EGMs":24},{"Licence number":"LIQC300229351","Licence name":"Padstow RSL Club Limited","Address":"24-28 Howard Rd","Suburb":"PADSTOW","Postcode":2211,"Latitude":-33.9524,"Longitude":151.0297,"lgaIdNSW":"11570","EGMs":51},{"Licence number":"LIQC300229408","Licence name":"Panania East Hills RSL Club Limited","Address":"28 CHILDS ST","Suburb":"PANANIA","Postcode":2213,"Latitude":-33.954,"Longitude":150.9883,"lgaIdNSW":"11570","EGMs":88},{"Licence number":"LIQC300229548","Licence name":"Picnic Point Bowling And Social Club Limited","Address":"124 Lambeth St","Suburb":"PANANIA","Postcode":2213,"Latitude":-33.9647,"Longitude":150.9966,"lgaIdNSW":"11570","EGMs":15},{"Licence number":"LIQC300229807","Licence name":"Revesby Workers' Sports Club","Address":"1 Spence St","Suburb":"REVESBY","Postcode":2212,"Latitude":-33.9549,"Longitude":151.0188,"lgaIdNSW":"11570","EGMs":15},{"Licence number":"LIQC300229823","Licence name":"Revesby Workers' Club Ltd","Address":"2B Brett St","Suburb":"REVESBY","Postcode":2212,"Latitude":-33.9541,"Longitude":151.014,"lgaIdNSW":"11570","EGMs":525},{"Licence number":"LIQC300229939","Licence name":"Lantern Club","Address":"21-27 Roseland Ave","Suburb":"ROSELANDS","Postcode":2196,"Latitude":-33.9358,"Longitude":151.071,"lgaIdNSW":"11570","EGMs":142},{"Licence number":"LIQC300230910","Licence name":"Magpie Sports","Address":"46 Hampton St","Suburb":"CROYDON PARK","Postcode":2133,"Latitude":-33.8999,"Longitude":151.1054,"lgaIdNSW":"11570","EGMs":15},{"Licence number":"LIQC300231488","Licence name":"Bankstown Polish Club Co-operative Limited","Address":"11 East Terrace","Suburb":"BANKSTOWN","Postcode":2200,"Latitude":-33.9192,"Longitude":151.0379,"lgaIdNSW":"11570","EGMs":10},{"Licence number":"LIQC324003344","Licence name":"Greek Com. Club","Address":"206-210 Lakemba St","Suburb":"LAKEMBA","Postcode":2195,"Latitude":-33.919,"Longitude":151.0742,"lgaIdNSW":"11570","EGMs":18}]
