[{"Licence number":"LIQC300200442","Licence name":"Norah Head Bowling & Sports Club Limited","Address":"Lot 147 Victoria St","Suburb":"NORAH HEAD","Postcode":2263,"Latitude":-33.2844,"Longitude":151.5633,"lgaIdNSW":"11650","EGMs":34},{"Licence number":"LIQC300235971","Licence name":"Avoca Beach Bowling & Recreation Club Ltd","Address":"Avoca Dr","Suburb":"KINCUMBER","Postcode":2251,"Latitude":-33.4663,"Longitude":151.4132,"lgaIdNSW":"11650","EGMs":101},{"Licence number":"LIQC300235998","Licence name":"Bateau Bay Bowling Club","Address":"5 Bias Ave","Suburb":"BATEAU BAY","Postcode":2261,"Latitude":-33.3753,"Longitude":151.4812,"lgaIdNSW":"11650","EGMs":88},{"Licence number":"LIQC300236005","Licence name":"Central Coast Leagues Club","Address":"Dane Dr","Suburb":"GOSFORD","Postcode":2250,"Latitude":-33.4282,"Longitude":151.3397,"lgaIdNSW":"11650","EGMs":255},{"Licence number":"LIQC300236021","Licence name":"Davistown RSL Club Ltd","Address":"19 Murna Road","Suburb":"DAVISTOWN","Postcode":2251,"Latitude":-33.4818,"Longitude":151.3639,"lgaIdNSW":"11650","EGMs":100},{"Licence number":"LIQC300236048","Licence name":"Ettalong Memorial Bowling Club Limited","Address":"103 Springwood St","Suburb":"ETTALONG BEACH","Postcode":2257,"Latitude":-33.5138,"Longitude":151.3254,"lgaIdNSW":"11650","EGMs":124},{"Licence number":"LIQC300236056","Licence name":"Everglades Country Club","Address":"Dunban Road","Suburb":"WOY WOY","Postcode":2256,"Latitude":-33.4993,"Longitude":151.316,"lgaIdNSW":"11650","EGMs":101},{"Licence number":"LIQC300236099","Licence name":"Gosford Golf Club Pty Ltd","Address":"Racecourse Rd","Suburb":"GOSFORD","Postcode":2250,"Latitude":-33.418,"Longitude":151.3402,"lgaIdNSW":"11650","EGMs":14},{"Licence number":"LIQC300236102","Licence name":"Gosford RSL Club","Address":"26 Central Coast Hwy","Suburb":"WEST GOSFORD","Postcode":2250,"Latitude":-33.429,"Longitude":151.3219,"lgaIdNSW":"11650","EGMs":216},{"Licence number":"LIQC300236110","Licence name":"Mangrove Mountain Memorial Club Limited","Address":"18 HALLARDS RD","Suburb":"CENTRAL MANGROVE","Postcode":2250,"Latitude":-33.2913,"Longitude":151.2375,"lgaIdNSW":"11650","EGMs":14},{"Licence number":"LIQC300236137","Licence name":"Ourimbah-Lisarow RSL Club Ltd","Address":"8-20 Pacific Hwy","Suburb":"OURIMBAH","Postcode":2258,"Latitude":-33.354,"Longitude":151.3699,"lgaIdNSW":"11650","EGMs":77},{"Licence number":"LIQC300236145","Licence name":"Terrigal Bowling Club Limited","Address":"Wilson Rd","Suburb":"TERRIGAL","Postcode":2260,"Latitude":-33.4499,"Longitude":151.445,"lgaIdNSW":"11650","EGMs":30},{"Licence number":"LIQC300236161","Licence name":"Shelly Beach Golf Club","Address":"Shelly Beach Rd","Suburb":"SHELLY BEACH","Postcode":2261,"Latitude":-33.3695,"Longitude":151.487,"lgaIdNSW":"11650","EGMs":28},{"Licence number":"LIQC300236188","Licence name":"Diggers The Entrance","Address":"4-6 Gallipoli St","Suburb":"LONG JETTY","Postcode":2261,"Latitude":-33.3524,"Longitude":151.4894,"lgaIdNSW":"11650","EGMs":161},{"Licence number":"LIQC300236196","Licence name":"CLUB UMINA","Address":"Melbourne Ave","Suburb":"UMINA BEACH","Postcode":2257,"Latitude":-33.5255,"Longitude":151.3128,"lgaIdNSW":"11650","EGMs":49},{"Licence number":"LIQC300236226","Licence name":"Ettalong Diggers","Address":"51-52 The Esplanade","Suburb":"ETTALONG BEACH","Postcode":2257,"Latitude":-33.5151,"Longitude":151.3349,"lgaIdNSW":"11650","EGMs":236},{"Licence number":"LIQC300236234","Licence name":"Wyong Bowling Club","Address":"Panonia Rd","Suburb":"WYONG","Postcode":2259,"Latitude":-33.2914,"Longitude":151.4275,"lgaIdNSW":"11650","EGMs":31},{"Licence number":"LIQC300236242","Licence name":"Wyong Golf Club Limited","Address":"Pacific Hwy","Suburb":"WYONG","Postcode":2259,"Latitude":-33.2688,"Longitude":151.4342,"lgaIdNSW":"11650","EGMs":47},{"Licence number":"LIQC300236250","Licence name":"Club Wyong","Address":"15 MARGARET ST","Suburb":"WYONG","Postcode":2259,"Latitude":-33.2821,"Longitude":151.4235,"lgaIdNSW":"11650","EGMs":87},{"Licence number":"LIQC300240533","Licence name":"Doyalson Wyee RSL Club Limited","Address":"Pacific Hwy","Suburb":"DOYALSON","Postcode":2262,"Latitude":-33.1975,"Longitude":151.526,"lgaIdNSW":"11650","EGMs":220},{"Licence number":"LIQC300240576","Licence name":"Halekulani Bowling Club","Address":"50 Natuna Ave","Suburb":"BUDGEWOI","Postcode":2262,"Latitude":-33.2317,"Longitude":151.5561,"lgaIdNSW":"11650","EGMs":85},{"Licence number":"LIQC300241203","Licence name":"Canton Beach Sports Club","Address":"Hibbard St","Suburb":"TOUKLEY","Postcode":2263,"Latitude":-33.2703,"Longitude":151.5463,"lgaIdNSW":"11650","EGMs":45},{"Licence number":"LIQC300241211","Licence name":"Toukley RSL Sub-Branch Club Limited","Address":"35-47 Holmes Ave","Suburb":"TOUKLEY","Postcode":2263,"Latitude":-33.2653,"Longitude":151.544,"lgaIdNSW":"11650","EGMs":118},{"Licence number":"LIQC300244679","Licence name":"Gwandalan Bowling Club","Address":"68 Gamban Rd","Suburb":"GWANDALAN","Postcode":2259,"Latitude":-33.1419,"Longitude":151.5901,"lgaIdNSW":"11650","EGMs":37},{"Licence number":"LIQC300244997","Licence name":"Gosford Sailing Club Ltd","Address":"383 Masons Pde","Suburb":"GOSFORD","Postcode":2250,"Latitude":-33.4368,"Longitude":151.3417,"lgaIdNSW":"11650","EGMs":16},{"Licence number":"LIQC300245020","Licence name":"Toukley Golf Club Limited","Address":"Key St","Suburb":"TOUKLEY","Postcode":2263,"Latitude":-33.2538,"Longitude":151.55,"lgaIdNSW":"11650","EGMs":34},{"Licence number":"LIQC300245071","Licence name":"Mooney Mooney Club","Address":"5 Kowan St","Suburb":"MOONEY MOONEY","Postcode":2083,"Latitude":-33.5289,"Longitude":151.2021,"lgaIdNSW":"11650","EGMs":24},{"Licence number":"LIQC300245101","Licence name":"Wyong Rugby League Club","Address":"Lake Haven Dr","Suburb":"KANWAL","Postcode":2259,"Latitude":-33.2522,"Longitude":151.4957,"lgaIdNSW":"11650","EGMs":243},{"Licence number":"LIQC300245152","Licence name":"Terrigal Memorial Country Club Limited","Address":"64 Dover Rd","Suburb":"WAMBERAL","Postcode":2260,"Latitude":-33.43,"Longitude":151.4363,"lgaIdNSW":"11650","EGMs":82},{"Licence number":"LIQC300245179","Licence name":"Munmorah United Bowling Club Ltd","Address":"Acacia Ave","Suburb":"LAKE MUNMORAH","Postcode":2259,"Latitude":-33.1919,"Longitude":151.5717,"lgaIdNSW":"11650","EGMs":65},{"Licence number":"LIQC300245608","Licence name":"Erina Rugby League Football Club Limited","Address":"18 Ilya Ave","Suburb":"ERINA","Postcode":2250,"Latitude":-33.4418,"Longitude":151.384,"lgaIdNSW":"11650","EGMs":100},{"Licence number":"LIQC300245683","Licence name":"Wallarah Bay Recreation Club","Address":"40 Wallarah Rd","Suburb":"GOROKAN","Postcode":2263,"Latitude":-33.2603,"Longitude":151.5143,"lgaIdNSW":"11650","EGMs":123},{"Licence number":"LIQC300245764","Licence name":"Mingara Recreation Club","Address":"Mingara Dr","Suburb":"TUMBI UMBI","Postcode":2261,"Latitude":-33.3621,"Longitude":151.4412,"lgaIdNSW":"11650","EGMs":364},{"Licence number":"LIQC324001581","Licence name":"Budgewoi Soccer Club","Address":"1 Millington Way","Suburb":"BUFF POINT","Postcode":2262,"Latitude":-33.2262,"Longitude":151.5353,"lgaIdNSW":"11650","EGMs":56},{"Licence number":"LIQC324003948","Licence name":"The Entrance Leagues Club Limited","Address":"3 Bay Village Rd","Suburb":"BATEAU BAY","Postcode":2261,"Latitude":-33.3775,"Longitude":151.4732,"lgaIdNSW":"11650","EGMs":146},{"Licence number":"LIQC324007238","Licence name":"Summerland Sporties","Address":"Lot 4 Summerland Rd","Suburb":"SUMMERLAND POINT","Postcode":2259,"Latitude":-33.1419,"Longitude":151.5731,"lgaIdNSW":"11650","EGMs":18}]
