[{"Licence number":"LIQC300238695","Licence name":"Abermain Bowling & Recreation Club Limited","Address":"Armidale St","Suburb":"ABERMAIN","Postcode":2326,"Latitude":-32.8071,"Longitude":151.4265,"lgaIdNSW":"11720","EGMs":24},{"Licence number":"LIQC300238717","Licence name":"Bellbird Park Bowling Club Limited","Address":"Hetton St","Suburb":"BELLBIRD","Postcode":2325,"Latitude":-32.8549,"Longitude":151.3187,"lgaIdNSW":"11720","EGMs":10},{"Licence number":"LIQC300238725","Licence name":"Bellbird Workers Club","Address":"409 Wollombi Rd","Suburb":"BELLBIRD","Postcode":2325,"Latitude":-32.8561,"Longitude":151.324,"lgaIdNSW":"11720","EGMs":28},{"Licence number":"LIQC300238741","Licence name":"Branxton Golf Club Co-operative Limited","Address":"25 Cessnock Rd","Suburb":"BRANXTON","Postcode":2335,"Latitude":-32.6593,"Longitude":151.3554,"lgaIdNSW":"11720","EGMs":12},{"Licence number":"LIQC300238776","Licence name":"Cessnock Ex-Services Club Limited","Address":"201 Vincent St","Suburb":"CESSNOCK","Postcode":2325,"Latitude":-32.8388,"Longitude":151.355,"lgaIdNSW":"11720","EGMs":30},{"Licence number":"LIQC300238806","Licence name":"East Cessnock Bowling Club","Address":"2 Neath St","Suburb":"CESSNOCK","Postcode":2325,"Latitude":-32.8308,"Longitude":151.3613,"lgaIdNSW":"11720","EGMs":98},{"Licence number":"LIQC300238830","Licence name":"Greta Workers Sports & Recreation Club Limited","Address":"2 West St","Suburb":"GRETA","Postcode":2334,"Latitude":-32.6756,"Longitude":151.3865,"lgaIdNSW":"11720","EGMs":69},{"Licence number":"LIQC300238849","Licence name":"Kurri Kurri Bowling Club","Address":"Tarro St","Suburb":"PELAW MAIN","Postcode":2327,"Latitude":-32.8261,"Longitude":151.4873,"lgaIdNSW":"11720","EGMs":79},{"Licence number":"LIQC300238857","Licence name":"Kurri Golf Club Limited","Address":"Clift St","Suburb":"HEDDON GRETA","Postcode":2321,"Latitude":-32.8061,"Longitude":151.5105,"lgaIdNSW":"11720","EGMs":10},{"Licence number":"LIQC300238989","Licence name":"Paxton Bowling Club Ltd","Address":"27 Clift St","Suburb":"PAXTON","Postcode":2325,"Latitude":-32.9027,"Longitude":151.283,"lgaIdNSW":"11720","EGMs":9},{"Licence number":"LIQC300239020","Licence name":"Weston District Workers' Co-operative Limited","Address":"1 Government Rd","Suburb":"WESTON","Postcode":2326,"Latitude":-32.814,"Longitude":151.4647,"lgaIdNSW":"11720","EGMs":50},{"Licence number":"LIQC300245926","Licence name":"Cessnock Leagues Club","Address":"1-7 Darwin St","Suburb":"CESSNOCK","Postcode":2325,"Latitude":-32.8341,"Longitude":151.3531,"lgaIdNSW":"11720","EGMs":123}]
