[{"Licence number":"LIQC300200566","Licence name":"Iluka Golf Club Limited","Address":"Hickey St","Suburb":"ILUKA","Postcode":2466,"Latitude":-29.3959,"Longitude":153.3573,"lgaIdNSW":"11730","EGMs":8},{"Licence number":"LIQC300237583","Licence name":"Grafton District Golf Club Ltd","Address":"425 Bent Street","Suburb":"SOUTH GRAFTON","Postcode":2460,"Latitude":-29.7355,"Longitude":152.9242,"lgaIdNSW":"11730","EGMs":12},{"Licence number":"LIQC300237591","Licence name":"Grafton District Services Club Ltd","Address":"105-107 Mary St","Suburb":"GRAFTON","Postcode":2460,"Latitude":-29.6811,"Longitude":152.934,"lgaIdNSW":"11730","EGMs":128},{"Licence number":"LIQC300237613","Licence name":"South Grafton District Ex-Servicemen's Club Limited","Address":"2-8 Wharf St","Suburb":"SOUTH GRAFTON","Postcode":2460,"Latitude":-29.7014,"Longitude":152.9378,"lgaIdNSW":"11730","EGMs":61},{"Licence number":"LIQC300237664","Licence name":"Wooli Bowling & Recreation Club Co-operative Limited","Address":"Main St","Suburb":"WOOLI","Postcode":2462,"Latitude":-29.8669,"Longitude":153.2658,"lgaIdNSW":"11730","EGMs":28},{"Licence number":"LIQC300238555","Licence name":"Maclean & District Bowling Club Co-operative Limited","Address":"1A McLachlan St","Suburb":"MACLEAN","Postcode":2463,"Latitude":-29.454,"Longitude":153.1995,"lgaIdNSW":"11730","EGMs":47},{"Licence number":"LIQC300238563","Licence name":"Maclean Golf Club Ltd","Address":"Golf Links Rd","Suburb":"ILARWILL","Postcode":2463,"Latitude":-29.4729,"Longitude":153.1667,"lgaIdNSW":"11730","EGMs":5},{"Licence number":"LIQC300238571","Licence name":"Yamba Bowling & Recreation Club Limited","Address":"44 Wooli St","Suburb":"YAMBA","Postcode":2464,"Latitude":-29.4382,"Longitude":153.3578,"lgaIdNSW":"11730","EGMs":74},{"Licence number":"LIQC300244849","Licence name":"Iluka Bowling Club Limited","Address":"75-79 Spencer St","Suburb":"ILUKA","Postcode":2466,"Latitude":-29.4078,"Longitude":153.3544,"lgaIdNSW":"11730","EGMs":38},{"Licence number":"LIQC300245268","Licence name":"Yamba Golf & Country Club Limited","Address":"River St","Suburb":"YAMBA","Postcode":2464,"Latitude":-29.4398,"Longitude":153.3601,"lgaIdNSW":"11730","EGMs":47},{"Licence number":"LIQC300245411","Licence name":"Brooms Head Bowling & Recreation Club Limited","Address":"30-36 Ocean Rd","Suburb":"BROOMS HEAD","Postcode":2463,"Latitude":-29.6025,"Longitude":153.3304,"lgaIdNSW":"11730","EGMs":12}]
