[{"Licence number":"LIQC300235548","Licence name":"C.ex COFFS","Address":"1-3 Vernon St","Suburb":"COFFS HARBOUR","Postcode":2450,"Latitude":-30.2955,"Longitude":153.1154,"lgaIdNSW":"11800","EGMs":177},{"Licence number":"LIQC300235564","Licence name":"Coffs Harbour Golf Club","Address":"Earl St","Suburb":"COFFS HARBOUR","Postcode":2450,"Latitude":-30.3078,"Longitude":153.1141,"lgaIdNSW":"11800","EGMs":12},{"Licence number":"LIQC300235599","Licence name":"Park Beach Bowling Club Limited","Address":"Park Beach Rd","Suburb":"COFFS HARBOUR","Postcode":2450,"Latitude":-30.2887,"Longitude":153.1383,"lgaIdNSW":"11800","EGMs":54},{"Licence number":"LIQC300235602","Licence name":"Sawtell Bowling & Recreation Club Limited","Address":"1 Lyons Rd","Suburb":"SAWTELL","Postcode":2452,"Latitude":-30.3712,"Longitude":153.1,"lgaIdNSW":"11800","EGMs":30},{"Licence number":"LIQC300235610","Licence name":"Sawtell Golf Club Ltd","Address":"3 Bayldon Rd","Suburb":"SAWTELL","Postcode":2452,"Latitude":-30.3695,"Longitude":153.0942,"lgaIdNSW":"11800","EGMs":14},{"Licence number":"LIQC300235629","Licence name":"Sawtell RSL Club Limited","Address":"First Ave","Suburb":"SAWTELL","Postcode":2452,"Latitude":-30.3685,"Longitude":153.1009,"lgaIdNSW":"11800","EGMs":103},{"Licence number":"LIQC300237621","Licence name":"Ulong & District Ex-Servicemen's & Women's Memorial Club Ltd","Address":"60 Pine Ave","Suburb":"ULONG","Postcode":2450,"Latitude":-30.241,"Longitude":152.8861,"lgaIdNSW":"11800","EGMs":9},{"Licence number":"LIQC300237648","Licence name":"C.ex Woolgoolga","Address":"18 Boundary St","Suburb":"WOOLGOOLGA","Postcode":2456,"Latitude":-30.1094,"Longitude":153.1982,"lgaIdNSW":"11800","EGMs":57},{"Licence number":"LIQC300237656","Licence name":"Woolgoolga Diggers Club","Address":"17 Beach St","Suburb":"WOOLGOOLGA","Postcode":2456,"Latitude":-30.1112,"Longitude":153.1954,"lgaIdNSW":"11800","EGMs":56},{"Licence number":"LIQC300245284","Licence name":"Red Rock Bowling & Recreation Club Limited","Address":"1 Rudder St","Suburb":"RED ROCK","Postcode":2456,"Latitude":-29.9855,"Longitude":153.2271,"lgaIdNSW":"11800","EGMs":14},{"Licence number":"LIQC324004473","Licence name":"Coffs Harbour Rugby League Football Club Ltd","Address":"Hogbin Dr","Suburb":"COFFS HARBOUR","Postcode":2450,"Latitude":-30.3262,"Longitude":153.096,"lgaIdNSW":"11800","EGMs":7},{"Licence number":"LIQC324007423","Licence name":"Safety Beach Golf Club","Address":"Lot 2 Safety Beach Dr","Suburb":"SAFETY BEACH","Postcode":2456,"Latitude":-30.0944,"Longitude":153.1936,"lgaIdNSW":"11800","EGMs":9}]
