[{"Licence number":"LIQC300225305","Licence name":"Auburn Soccer Sports Club Ltd","Address":"12-14 NORTHUMBERLAND RD","Suburb":"AUBURN","Postcode":2144,"Latitude":-33.8484,"Longitude":151.0336,"lgaIdNSW":"12380","EGMs":65},{"Licence number":"LIQC300226247","Licence name":"Carnarvon Golf Club","Address":"Nottinghill Rd","Suburb":"BERALA","Postcode":2141,"Latitude":-33.8804,"Longitude":151.0373,"lgaIdNSW":"12380","EGMs":25},{"Licence number":"LIQC300226832","Licence name":"Cumberland Country Golf Club","Address":"248 Old Prospect Rd","Suburb":"GREYSTANES","Postcode":2145,"Latitude":-33.8229,"Longitude":150.9438,"lgaIdNSW":"12380","EGMs":27},{"Licence number":"LIQC300227510","Licence name":"Granville Diggers","Address":"5 Memorial Dr","Suburb":"GRANVILLE","Postcode":2142,"Latitude":-33.836,"Longitude":151.0144,"lgaIdNSW":"12380","EGMs":137},{"Licence number":"LIQC300227561","Licence name":"Guildford Bowling Club","Address":"97 Bursill St","Suburb":"GUILDFORD","Postcode":2161,"Latitude":-33.8501,"Longitude":150.9887,"lgaIdNSW":"12380","EGMs":53},{"Licence number":"LIQC300227596","Licence name":"Guildford Rugby League Football & Recreation Club Ltd","Address":"'McCredie Park' 25 Tamplin Rd","Suburb":"GUILDFORD","Postcode":2161,"Latitude":-33.8541,"Longitude":150.9732,"lgaIdNSW":"12380","EGMs":179},{"Licence number":"LIQC300228207","Licence name":"Lidcombe Bowling Club Ltd","Address":"3 James St","Suburb":"LIDCOMBE","Postcode":2141,"Latitude":-33.8661,"Longitude":151.0445,"lgaIdNSW":"12380","EGMs":10},{"Licence number":"LIQC300228215","Licence name":"Dooleys Lidcombe Catholic Club","Address":"24-28 John St","Suburb":"LIDCOMBE","Postcode":2141,"Latitude":-33.862,"Longitude":151.0436,"lgaIdNSW":"12380","EGMs":450},{"Licence number":"LIQC300228630","Licence name":"Merrylands Bowling Club","Address":"65 Newman St","Suburb":"MERRYLANDS","Postcode":2160,"Latitude":-33.8365,"Longitude":150.9839,"lgaIdNSW":"12380","EGMs":230},{"Licence number":"LIQC300228649","Licence name":"Merrylands RSL Club Ltd","Address":"8-12 Miller Street","Suburb":"MERRYLANDS","Postcode":2160,"Latitude":-33.8376,"Longitude":150.9902,"lgaIdNSW":"12380","EGMs":277},{"Licence number":"LIQC300229785","Licence name":"DOOLEYS Regents Park Sports Club","Address":"Terrene St","Suburb":"REGENTS PARK","Postcode":2143,"Latitude":-33.8825,"Longitude":151.0274,"lgaIdNSW":"12380","EGMs":74},{"Licence number":"LIQC300229998","Licence name":"Rosnay Golf Club Limited","Address":"5 Weymouth Ave","Suburb":"AUBURN","Postcode":2144,"Latitude":-33.8645,"Longitude":151.0176,"lgaIdNSW":"12380","EGMs":3},{"Licence number":"LIQC300230880","Licence name":"Wentworthville Leagues Club Limited","Address":"50 Smith St","Suburb":"WENTWORTHVILLE","Postcode":2145,"Latitude":-33.8116,"Longitude":150.9633,"lgaIdNSW":"12380","EGMs":545},{"Licence number":"LIQC300231143","Licence name":"Auburn Tennis & Recreation Club","Address":"181 Chisholm Rd","Suburb":"AUBURN","Postcode":2144,"Latitude":-33.8611,"Longitude":151.0186,"lgaIdNSW":"12380","EGMs":53}]
