[{"Licence number":"LIQC300237087","Licence name":"North Dubbo RSL Sporties","Address":"101-103 ERSKINE ST","Suburb":"DUBBO","Postcode":2830,"Latitude":-32.244,"Longitude":148.6086,"lgaIdNSW":"12390","EGMs":39},{"Licence number":"LIQC300237095","Licence name":"Dubbo Golf Club Ltd","Address":"Peak Hill Rd","Suburb":"DUBBO","Postcode":2830,"Latitude":-32.2635,"Longitude":148.5793,"lgaIdNSW":"12390","EGMs":20},{"Licence number":"LIQC300237109","Licence name":"Dubbo RSL Memorial Club Limited","Address":"178-188 Brisbane St","Suburb":"DUBBO","Postcode":2830,"Latitude":-32.2503,"Longitude":148.6039,"lgaIdNSW":"12390","EGMs":208},{"Licence number":"LIQC300237133","Licence name":"Geurie Bowling Club Ltd","Address":"64-72 Jennings Street","Suburb":"GEURIE","Postcode":2818,"Latitude":-32.3991,"Longitude":148.8273,"lgaIdNSW":"12390","EGMs":8},{"Licence number":"LIQC300237141","Licence name":"Macquarie Club (Dubbo) Ltd","Address":"313 Macquarie St","Suburb":"DUBBO","Postcode":2830,"Latitude":-32.2609,"Longitude":148.6008,"lgaIdNSW":"12390","EGMs":15},{"Licence number":"LIQC300237222","Licence name":"Club Dubbo","Address":"82 Whylandra St","Suburb":"DUBBO","Postcode":2830,"Latitude":-32.2545,"Longitude":148.5895,"lgaIdNSW":"12390","EGMs":71},{"Licence number":"LIQC300243605","Licence name":"Wellington Bowling Club Limited","Address":"Clive St","Suburb":"WELLINGTON","Postcode":2820,"Latitude":-32.5581,"Longitude":148.9554,"lgaIdNSW":"12390","EGMs":5},{"Licence number":"LIQC300243613","Licence name":"Wellington Golf Club Limited","Address":"Caves Rd","Suburb":"APSLEY","Postcode":2820,"Latitude":-32.6233,"Longitude":148.9333,"lgaIdNSW":"12390","EGMs":2},{"Licence number":"LIQC300243621","Licence name":"Wellington Soldiers Memorial Club Limited","Address":"75 Arthur St","Suburb":"WELLINGTON","Postcode":2820,"Latitude":-32.5545,"Longitude":148.9444,"lgaIdNSW":"12390","EGMs":52}]
