[{"Licence number":"LIQC300200248","Licence name":"Club Dalmeny","Address":"1 Ruth Pl","Suburb":"DALMENY","Postcode":2546,"Latitude":-36.1674,"Longitude":150.1107,"lgaIdNSW":"12750","EGMs":17},{"Licence number":"LIQC300239462","Licence name":"Batemans Bay Soldiers Club Ltd","Address":"Beach Rd","Suburb":"BATEMANS BAY","Postcode":2536,"Latitude":-35.709,"Longitude":150.179,"lgaIdNSW":"12750","EGMs":160},{"Licence number":"LIQC300239470","Licence name":"Catalina Country Club","Address":"154 Beach Rd","Suburb":"CATALINA","Postcode":2536,"Latitude":-35.7199,"Longitude":150.1897,"lgaIdNSW":"12750","EGMs":154},{"Licence number":"LIQC300239489","Licence name":"Moruya Bowling & Recreation Club","Address":"26-32 Shore St","Suburb":"MORUYA","Postcode":2537,"Latitude":-35.9067,"Longitude":150.0729,"lgaIdNSW":"12750","EGMs":36},{"Licence number":"LIQC300239497","Licence name":"Moruya Golf Club","Address":"Evans St","Suburb":"MORUYA","Postcode":2537,"Latitude":-35.9141,"Longitude":150.0753,"lgaIdNSW":"12750","EGMs":43},{"Licence number":"LIQC300239500","Licence name":"Club Narooma","Address":"88 Princes Hwy","Suburb":"NAROOMA","Postcode":2546,"Latitude":-36.2175,"Longitude":150.1296,"lgaIdNSW":"12750","EGMs":97},{"Licence number":"LIQC300239527","Licence name":"Narooma Golf Club","Address":"1 Ballingalla St","Suburb":"NAROOMA","Postcode":2546,"Latitude":-36.2186,"Longitude":150.1388,"lgaIdNSW":"12750","EGMs":50},{"Licence number":"LIQC300239535","Licence name":"Tuross Head Country Club Limited","Address":"40 MONASH AVE","Suburb":"TUROSS HEAD","Postcode":2537,"Latitude":-36.0508,"Longitude":150.1369,"lgaIdNSW":"12750","EGMs":30},{"Licence number":"LIQC300245497","Licence name":"Bodalla Bowling & Recreation Club Limited","Address":"9 Potato Point Rd","Suburb":"BODALLA","Postcode":2545,"Latitude":-36.0976,"Longitude":150.0552,"lgaIdNSW":"12750","EGMs":14},{"Licence number":"LIQC300245721","Licence name":"Tomakin Sports & Social Club Limited","Address":"1 Sunpatch Pde","Suburb":"TOMAKIN","Postcode":2537,"Latitude":-35.8256,"Longitude":150.187,"lgaIdNSW":"12750","EGMs":107}]
