[{"Licence number":"LIQC300200094","Licence name":"Canley Heights R S L & Sporting Club Ltd","Address":"26 Humphries Rd","Suburb":"WAKELEY","Postcode":2176,"Latitude":-33.8789,"Longitude":150.9129,"lgaIdNSW":"12850","EGMs":150},{"Licence number":"LIQC300200396","Licence name":"Triglav Mounties Group","Address":"80-84 Brisbane Rd","Suburb":"ST JOHNS PARK","Postcode":2176,"Latitude":-33.8776,"Longitude":150.9006,"lgaIdNSW":"12850","EGMs":54},{"Licence number":"LIQC300200663","Licence name":"Bonnyrigg Sports Club","Address":"610-618 Elizabeth Dr","Suburb":"BONNYRIGG HEIGHTS","Postcode":2177,"Latitude":-33.8887,"Longitude":150.873,"lgaIdNSW":"12850","EGMs":15},{"Licence number":"LIQC300226085","Licence name":"Cabramatta Bowling & Recreation Club Ltd","Address":"Fairview Rd","Suburb":"CABRAMATTA","Postcode":2166,"Latitude":-33.8949,"Longitude":150.9466,"lgaIdNSW":"12850","EGMs":125},{"Licence number":"LIQC300226093","Licence name":"Cabramatta Golf Club Ltd","Address":"Cabramatta Rd & Cumberland Hwy","Suburb":"CABRAMATTA","Postcode":2166,"Latitude":-33.8998,"Longitude":150.9186,"lgaIdNSW":"12850","EGMs":29},{"Licence number":"LIQC300226107","Licence name":"Cabra-Vale Ex-Active Servicemen's Club Ltd","Address":"1 Bartley Street","Suburb":"CANLEY VALE","Postcode":2166,"Latitude":-33.8895,"Longitude":150.9398,"lgaIdNSW":"12850","EGMs":450},{"Licence number":"LIQC300226484","Licence name":"Club Marconi Limited","Address":"121-133 Prairie Vale Road","Suburb":"BOSSLEY PARK","Postcode":2176,"Latitude":-33.8644,"Longitude":150.8802,"lgaIdNSW":"12850","EGMs":374},{"Licence number":"LIQC300227251","Licence name":"Mounties Bowling Club","Address":"Lawson & Ulverston Sts","Suburb":"FAIRFIELD","Postcode":2165,"Latitude":-33.8746,"Longitude":150.9578,"lgaIdNSW":"12850","EGMs":10},{"Licence number":"LIQC300227286","Licence name":"City Of Fairfield RSL Memorial Club Limited","Address":"14 Anzac Ave","Suburb":"FAIRFIELD","Postcode":2165,"Latitude":-33.873,"Longitude":150.958,"lgaIdNSW":"12850","EGMs":332},{"Licence number":"LIQC300228193","Licence name":"Smithfield RSL","Address":"Cumberland Hwy & Neville St","Suburb":"SMITHFIELD","Postcode":2164,"Latitude":-33.8555,"Longitude":150.9375,"lgaIdNSW":"12850","EGMs":325},{"Licence number":"LIQC300230481","Licence name":"St Johns Park Bowling Club Ltd","Address":"93 Edensor Rd","Suburb":"ST JOHNS PARK","Postcode":2176,"Latitude":-33.8833,"Longitude":150.8925,"lgaIdNSW":"12850","EGMs":372},{"Licence number":"LIQC300231135","Licence name":"Mt Pritchard & District Community Club Limited (Trading as Mounties)","Address":"101 Meadows Rd","Suburb":"MOUNT PRITCHARD","Postcode":2170,"Latitude":-33.8973,"Longitude":150.8997,"lgaIdNSW":"12850","EGMs":615},{"Licence number":"LIQC300231577","Licence name":"King Tom Club","Address":"223-227 Edensor Rd","Suburb":"EDENSOR PARK","Postcode":2176,"Latitude":-33.8762,"Longitude":150.8739,"lgaIdNSW":"12850","EGMs":57},{"Licence number":"LIQC300231623","Licence name":"Cabramatta Rugby League Club Limited","Address":"24-26 Sussex St","Suburb":"CABRAMATTA","Postcode":2166,"Latitude":-33.9028,"Longitude":150.9354,"lgaIdNSW":"12850","EGMs":166},{"Licence number":"LIQC300231801","Licence name":"Lansvale United Sports Club Ltd","Address":"21 Shortland St","Suburb":"CANLEY VALE","Postcode":2166,"Latitude":-33.8879,"Longitude":150.9526,"lgaIdNSW":"12850","EGMs":44},{"Licence number":"LIQC324002938","Licence name":"Assyrian Sports & Cultural Club","Address":"52-54 Stanbrook St","Suburb":"FAIRFIELD HEIGHTS","Postcode":2165,"Latitude":-33.8634,"Longitude":150.9395,"lgaIdNSW":"12850","EGMs":56},{"Licence number":"LIQC324004273","Licence name":"Mekong Mounties Group","Address":"1st & 2nd Floors 117 John St","Suburb":"CABRAMATTA","Postcode":2166,"Latitude":-33.8945,"Longitude":150.9341,"lgaIdNSW":"12850","EGMs":144},{"Licence number":"LIQC324005367","Licence name":"Hungarian (Magyar) Social Club","Address":"706-708 Smithfield Rd","Suburb":"EDENSOR PARK","Postcode":2176,"Latitude":-33.8842,"Longitude":150.8848,"lgaIdNSW":"12850","EGMs":6}]
