[{"Licence number":"LIQC300200213","Licence name":"Mulwala Water Ski Club Ltd","Address":"156 Melbourne St","Suburb":"MULWALA","Postcode":2647,"Latitude":-35.9953,"Longitude":146.0021,"lgaIdNSW":"12870","EGMs":149},{"Licence number":"LIQC300236854","Licence name":"Corowa Golf Club Ltd","Address":"1 Hume St","Suburb":"COROWA","Postcode":2646,"Latitude":-36.038,"Longitude":146.3722,"lgaIdNSW":"12870","EGMs":41},{"Licence number":"LIQC300236862","Licence name":"Corowa RSL Club Limited","Address":"30 Betterment Pde","Suburb":"COROWA","Postcode":2646,"Latitude":-35.9953,"Longitude":146.3871,"lgaIdNSW":"12870","EGMs":144},{"Licence number":"LIQC300236870","Licence name":"Howlong Country Golf Club Ltd","Address":"Holbeach St","Suburb":"HOWLONG","Postcode":2643,"Latitude":-35.9852,"Longitude":146.6444,"lgaIdNSW":"12870","EGMs":51},{"Licence number":"LIQC300236889","Licence name":"Club Mulwala","Address":"271 Melbourne St","Suburb":"MULWALA","Postcode":2647,"Latitude":-36.0031,"Longitude":146.0013,"lgaIdNSW":"12870","EGMs":194},{"Licence number":"LIQC300236897","Licence name":"Yarrawonga & Border Golf Club Limited","Address":"Weir Rd","Suburb":"MULWALA","Postcode":2647,"Latitude":-36.0049,"Longitude":145.9937,"lgaIdNSW":"12870","EGMs":120},{"Licence number":"LIQC300243214","Licence name":"Oaklands RSL Bowling Club Ltd","Address":"78 Buller St","Suburb":"OAKLANDS","Postcode":2646,"Latitude":-35.5593,"Longitude":146.1727,"lgaIdNSW":"12870","EGMs":12},{"Licence number":"LIQC300243222","Licence name":"Rand Bowling Club Ltd","Address":"Kindra St","Suburb":"RAND","Postcode":2642,"Latitude":-35.5927,"Longitude":146.5793,"lgaIdNSW":"12870","EGMs":4},{"Licence number":"LIQC300243230","Licence name":"Urana Bowling Club Ltd","Address":"18-20 William St","Suburb":"URANA","Postcode":2645,"Latitude":-35.332,"Longitude":146.2688,"lgaIdNSW":"12870","EGMs":4}]
