[{"Licence number":"LIQC300225720","Licence name":"Beverley Park Golf Club Ltd","Address":"87A Jubilee Ave","Suburb":"BEVERLEY PARK","Postcode":2217,"Latitude":-33.9774,"Longitude":151.1317,"lgaIdNSW":"12930","EGMs":14},{"Licence number":"LIQC300227499","Licence name":"Grandviews Bowling & Recreation Club","Address":"821 Forest Rd","Suburb":"PEAKHURST","Postcode":2210,"Latitude":-33.9689,"Longitude":151.0513,"lgaIdNSW":"12930","EGMs":37},{"Licence number":"LIQC300227790","Licence name":"Hurstville R.S.L. Memorial Club Ltd","Address":"1 Ormonde Pde","Suburb":"HURSTVILLE","Postcode":2220,"Latitude":-33.9684,"Longitude":151.1039,"lgaIdNSW":"12930","EGMs":106},{"Licence number":"LIQC300227804","Licence name":"Club Central Hurstville","Address":"Crofts Ave & Cross St","Suburb":"HURSTVILLE","Postcode":2220,"Latitude":-33.9658,"Longitude":151.104,"lgaIdNSW":"12930","EGMs":333},{"Licence number":"LIQC300227995","Licence name":"Kogarah RSL Club Ltd","Address":"254 RAILWAY PDE","Suburb":"KOGARAH","Postcode":2217,"Latitude":-33.968,"Longitude":151.1284,"lgaIdNSW":"12930","EGMs":65},{"Licence number":"LIQC300228800","Licence name":"Mortdale RSL Community Club Limited","Address":"25 Macquarie Pl","Suburb":"MORTDALE","Postcode":2223,"Latitude":-33.9718,"Longitude":151.0785,"lgaIdNSW":"12930","EGMs":36},{"Licence number":"LIQC300229319","Licence name":"Oatley RSL & Community Club Limited","Address":"Letitia St","Suburb":"OATLEY","Postcode":2223,"Latitude":-33.9817,"Longitude":151.0811,"lgaIdNSW":"12930","EGMs":48},{"Licence number":"LIQC300229467","Licence name":"Olds Park Sports Club","Address":"7 Holley Rd","Suburb":"BEVERLY HILLS","Postcode":2209,"Latitude":-33.9586,"Longitude":151.0716,"lgaIdNSW":"12930","EGMs":22},{"Licence number":"LIQC300229505","Licence name":"Penshurst RSL","Address":"58A Penshurst St","Suburb":"PENSHURST","Postcode":2222,"Latitude":-33.9643,"Longitude":151.0882,"lgaIdNSW":"12930","EGMs":100},{"Licence number":"LIQC300229858","Licence name":"Riverwood Sports and Recreation Club","Address":"283-285 Belmore Rd","Suburb":"RIVERWOOD","Postcode":2210,"Latitude":-33.9511,"Longitude":151.0518,"lgaIdNSW":"12930","EGMs":28},{"Licence number":"LIQC300229866","Licence name":"Club Rivers","Address":"32 Littleton St","Suburb":"RIVERWOOD","Postcode":2210,"Latitude":-33.9518,"Longitude":151.0534,"lgaIdNSW":"12930","EGMs":207},{"Licence number":"LIQC300230295","Licence name":"The Pinnacle South Hurstville RSL Club","Address":"72 CONNELLS POINT RD","Suburb":"SOUTH HURSTVILLE","Postcode":2221,"Latitude":-33.9784,"Longitude":151.1047,"lgaIdNSW":"12930","EGMs":67},{"Licence number":"LIQC300230414","Licence name":"St George Leagues Club Limited","Address":"124 Princes Hwy","Suburb":"BEVERLEY PARK","Postcode":2217,"Latitude":-33.9749,"Longitude":151.1291,"lgaIdNSW":"12930","EGMs":358},{"Licence number":"LIQC300230430","Licence name":"St George Motor Boat Club Limited","Address":"2 Wellington St","Suburb":"SANS SOUCI","Postcode":2219,"Latitude":-34.0004,"Longitude":151.1228,"lgaIdNSW":"12930","EGMs":100},{"Licence number":"LIQC300231461","Licence name":"St George Masonic Club Limited","Address":"86 Roberts Ave","Suburb":"MORTDALE","Postcode":2223,"Latitude":-33.969,"Longitude":151.0643,"lgaIdNSW":"12930","EGMs":76}]
