[{"Licence number":"LIQC300240061","Licence name":"Coro Club Limited","Address":"20-26 Harward Rd","Suburb":"GRIFFITH","Postcode":2680,"Latitude":-34.2885,"Longitude":146.0235,"lgaIdNSW":"13450","EGMs":40},{"Licence number":"LIQC300240096","Licence name":"Griffith Ex-Servicemen's Club Limited","Address":"12 Jondaryan Ave","Suburb":"GRIFFITH","Postcode":2680,"Latitude":-34.2894,"Longitude":146.0495,"lgaIdNSW":"13450","EGMs":147},{"Licence number":"LIQC300240118","Licence name":"Griffith Golf Club Co-operative Society Limited","Address":"Remembrance Dr","Suburb":"GRIFFITH","Postcode":2680,"Latitude":-34.2634,"Longitude":146.0619,"lgaIdNSW":"13450","EGMs":7},{"Licence number":"LIQC300240126","Licence name":"Griffith Leagues Club Southside","Address":"Bridge Rd & Jondaryan Ave","Suburb":"GRIFFITH","Postcode":2680,"Latitude":-34.2923,"Longitude":146.0508,"lgaIdNSW":"13450","EGMs":96},{"Licence number":"LIQC300240134","Licence name":"Griffith Leagues Club Northside","Address":"Wakaden St","Suburb":"GRIFFITH","Postcode":2680,"Latitude":-34.2923,"Longitude":146.0508,"lgaIdNSW":"13450","EGMs":10},{"Licence number":"LIQC300240142","Licence name":"Hanwood Sports Club","Address":"21-27 Yarran St","Suburb":"HANWOOD","Postcode":2680,"Latitude":-34.3314,"Longitude":146.0462,"lgaIdNSW":"13450","EGMs":9},{"Licence number":"LIQC300240266","Licence name":"YENDA DIGGERS CLUB LTD","Address":"22-28 Mirrool Ave","Suburb":"YENDA","Postcode":2681,"Latitude":-34.2503,"Longitude":146.1975,"lgaIdNSW":"13450","EGMs":9},{"Licence number":"LIQC300240274","Licence name":"Yoogali Club Limited","Address":"Farm 647","Suburb":"YOOGALI","Postcode":2680,"Latitude":-34.2989,"Longitude":146.081,"lgaIdNSW":"13450","EGMs":16},{"Licence number":"LIQC324007345","Licence name":"Exies Sport Club","Address":"Wakaden St","Suburb":"GRIFFITH","Postcode":2680,"Latitude":-34.2862,"Longitude":146.0629,"lgaIdNSW":"13450","EGMs":39}]
