[{"Licence number":"LIQC300200108","Licence name":"Cyprus Community of NSW Limited","Address":"58-76 Stanmore Road","Suburb":"STANMORE","Postcode":2048,"Latitude":-33.8988,"Longitude":151.1683,"lgaIdNSW":"14170","EGMs":30},{"Licence number":"LIQC300200698","Licence name":"Sydney Portugal Community Club Limited","Address":"100 Marrickville Rd","Suburb":"MARRICKVILLE","Postcode":2204,"Latitude":-33.9143,"Longitude":151.1628,"lgaIdNSW":"14170","EGMs":20},{"Licence number":"LIQC300225178","Licence name":"Ashfield Bowling Club","Address":"Ashfield Park","Suburb":"ASHFIELD","Postcode":2131,"Latitude":-33.8849,"Longitude":151.1347,"lgaIdNSW":"14170","EGMs":10},{"Licence number":"LIQC300225194","Licence name":"Club Ashfield","Address":"1-11 Charlotte St","Suburb":"ASHFIELD","Postcode":2131,"Latitude":-33.8871,"Longitude":151.1259,"lgaIdNSW":"14170","EGMs":94},{"Licence number":"LIQC300225208","Licence name":"Ashfield RSL Sub-Branch Club Limited","Address":"374 LIVERPOOL RD","Suburb":"ASHFIELD","Postcode":2131,"Latitude":-33.8892,"Longitude":151.1187,"lgaIdNSW":"14170","EGMs":104},{"Licence number":"LIQC300225445","Licence name":"Balmain Bowling Club Ltd","Address":"156 Darling St","Suburb":"BALMAIN EAST","Postcode":2041,"Latitude":-33.8584,"Longitude":151.1883,"lgaIdNSW":"14170","EGMs":14},{"Licence number":"LIQC300227421","Licence name":"Gladstone Park Bowling Club Ltd","Address":"'Gladstone Park' Darvall St","Suburb":"BALMAIN","Postcode":2041,"Latitude":-33.8591,"Longitude":151.1831,"lgaIdNSW":"14170","EGMs":6},{"Licence number":"LIQC300228169","Licence name":"Leichhardt Bowling & Recreation Club Limited","Address":"88-92 Piper St","Suburb":"LILYFIELD","Postcode":2040,"Latitude":-33.8762,"Longitude":151.1617,"lgaIdNSW":"14170","EGMs":12},{"Licence number":"LIQC300228509","Licence name":"Marrickville Bowling & Recreation Club Limited","Address":"91 Sydenham Rd","Suburb":"MARRICKVILLE","Postcode":2204,"Latitude":-33.9105,"Longitude":151.1641,"lgaIdNSW":"14170","EGMs":22},{"Licence number":"LIQC300228525","Licence name":"Marrickville & District Hardcourt Tennis Club Ltd","Address":"Henson Park","Suburb":"MARRICKVILLE","Postcode":2204,"Latitude":-33.9032,"Longitude":151.1579,"lgaIdNSW":"14170","EGMs":9},{"Licence number":"LIQC300228541","Licence name":"Marrickville Golf Club Ltd","Address":"Wharf Street","Suburb":"MARRICKVILLE","Postcode":2204,"Latitude":-33.9194,"Longitude":151.1393,"lgaIdNSW":"14170","EGMs":12},{"Licence number":"LIQC300229521","Licence name":"Petersham RSL Club Limited","Address":"7-7A Regent St","Suburb":"PETERSHAM","Postcode":2049,"Latitude":-33.8947,"Longitude":151.156,"lgaIdNSW":"14170","EGMs":186},{"Licence number":"LIQC300230929","Licence name":"Western Suburbs Leagues Club Limited","Address":"115 Liverpool Rd","Suburb":"ASHFIELD","Postcode":2131,"Latitude":-33.8896,"Longitude":151.1304,"lgaIdNSW":"14170","EGMs":382},{"Licence number":"LIQC300231380","Licence name":"Wests Sports Croydon","Address":"114 Church St","Suburb":"CROYDON","Postcode":2132,"Latitude":-33.8764,"Longitude":151.1217,"lgaIdNSW":"14170","EGMs":32},{"Licence number":"LIQC324001374","Licence name":"Portugal Madeira Sydney Social & Cultural Sports Club Limited","Address":"1-3 Denby St","Suburb":"MARRICKVILLE","Postcode":2204,"Latitude":-33.9037,"Longitude":151.1658,"lgaIdNSW":"14170","EGMs":12}]
