[{"Licence number":"LIQC300200280","Licence name":"Frederickton Golf Club","Address":"Yarrabandinni Rd","Suburb":"FREDERICKTON","Postcode":2440,"Latitude":-31.0307,"Longitude":152.878,"lgaIdNSW":"14350","EGMs":6},{"Licence number":"LIQC300238598","Licence name":"Hat Head Bowling & Recreation Club Limited","Address":"2 Myrtle Street","Suburb":"HAT HEAD","Postcode":2440,"Latitude":-31.0552,"Longitude":153.0524,"lgaIdNSW":"14350","EGMs":18},{"Licence number":"LIQC300238601","Licence name":"Kempsey Macleay RSL Bowling And Sporting Club","Address":"Eden St","Suburb":"KEMPSEY","Postcode":2440,"Latitude":-31.0801,"Longitude":152.8428,"lgaIdNSW":"14350","EGMs":20},{"Licence number":"LIQC300238628","Licence name":"Crescent Head Country Club","Address":"1 Rankine St","Suburb":"CRESCENT HEAD","Postcode":2440,"Latitude":-31.1892,"Longitude":152.9783,"lgaIdNSW":"14350","EGMs":46},{"Licence number":"LIQC300238636","Licence name":"Kempsey Golf Club","Address":"330 Pacific Hwy","Suburb":"SOUTH KEMPSEY","Postcode":2440,"Latitude":-31.1033,"Longitude":152.8276,"lgaIdNSW":"14350","EGMs":8},{"Licence number":"LIQC300238644","Licence name":"Kempsey Heights Grand United Bowling & Recreation Club Ltd","Address":"10 Polwood St","Suburb":"WEST KEMPSEY","Postcode":2440,"Latitude":-31.0659,"Longitude":152.8218,"lgaIdNSW":"14350","EGMs":49},{"Licence number":"LIQC300238652","Licence name":"Kempsey Macleay RSL Club","Address":"1 York Lane","Suburb":"KEMPSEY","Postcode":2440,"Latitude":-31.0804,"Longitude":152.8426,"lgaIdNSW":"14350","EGMs":91},{"Licence number":"LIQC300238660","Licence name":"Smithtown Sport and Recreation Club Limited","Address":"14-16 Church St","Suburb":"SMITHTOWN","Postcode":2440,"Latitude":-31.017,"Longitude":152.9418,"lgaIdNSW":"14350","EGMs":2},{"Licence number":"LIQC300238679","Licence name":"South West Rocks Country Club","Address":"Phillip Drive","Suburb":"SOUTH WEST ROCKS","Postcode":2431,"Latitude":-30.8896,"Longitude":153.0474,"lgaIdNSW":"14350","EGMs":72},{"Licence number":"LIQC300238687","Licence name":"Stuarts Point Workers Recreation & Bowls Club Limited","Address":"34-40 Ocean Ave","Suburb":"STUARTS POINT","Postcode":2441,"Latitude":-30.8199,"Longitude":152.9881,"lgaIdNSW":"14350","EGMs":23}]
