[{"Licence number":"LIQC300200019","Licence name":"Charlestown Golf Club Ltd","Address":"1A Barker Ave","Suburb":"HILLSBOROUGH","Postcode":2290,"Latitude":-32.9636,"Longitude":151.6698,"lgaIdNSW":"14650","EGMs":11},{"Licence number":"LIQC300240347","Licence name":"Belmont Golf Club Limited","Address":"PO Box 801A Pacific Hwy","Suburb":"MARKS POINT","Postcode":2280,"Latitude":-33.0531,"Longitude":151.6628,"lgaIdNSW":"14650","EGMs":20},{"Licence number":"LIQC300240363","Licence name":"Belmont 16 Foot Sailing Club","Address":"The Parade","Suburb":"BELMONT","Postcode":2280,"Latitude":-33.0311,"Longitude":151.6516,"lgaIdNSW":"14650","EGMs":240},{"Licence number":"LIQC300240428","Licence name":"Boolaroo Bowling & Recreation Co-operative Society Limited","Address":"31 Eighth St","Suburb":"SPEERS POINT","Postcode":2284,"Latitude":-32.9565,"Longitude":151.6202,"lgaIdNSW":"14650","EGMs":11},{"Licence number":"LIQC300240452","Licence name":"Cardiff Bowling Club Co-operative Limited","Address":"Macquarie Rd","Suburb":"CARDIFF","Postcode":2285,"Latitude":-32.9437,"Longitude":151.6597,"lgaIdNSW":"14650","EGMs":21},{"Licence number":"LIQC300240479","Licence name":"Cardiff RSL Club Limited","Address":"45 Macquarie Rd","Suburb":"CARDIFF","Postcode":2285,"Latitude":-32.942,"Longitude":151.6576,"lgaIdNSW":"14650","EGMs":99},{"Licence number":"LIQC300240509","Licence name":"Charlestown Bowling Club","Address":"Patricia Avenue & Lincoln Street","Suburb":"CHARLESTOWN","Postcode":2290,"Latitude":-32.9669,"Longitude":151.6928,"lgaIdNSW":"14650","EGMs":101},{"Licence number":"LIQC300240525","Licence name":"Dora Creek & District Workers Co-operative Club Limited","Address":"1 Minnie St","Suburb":"DORA CREEK","Postcode":2264,"Latitude":-33.0815,"Longitude":151.5006,"lgaIdNSW":"14650","EGMs":57},{"Licence number":"LIQC300240541","Licence name":"Edgeworth Bowling Club Co-operative Limited","Address":"1A Park Street","Suburb":"EDGEWORTH","Postcode":2285,"Latitude":-32.9244,"Longitude":151.6209,"lgaIdNSW":"14650","EGMs":40},{"Licence number":"LIQC300240657","Licence name":"Kahibah Bowling Club Co-operative Limited","Address":"63 Kenibea Ave","Suburb":"KAHIBAH","Postcode":2290,"Latitude":-32.9649,"Longitude":151.7069,"lgaIdNSW":"14650","EGMs":50},{"Licence number":"LIQC300240665","Licence name":"Toronto Country Club Ltd","Address":"Wangi St","Suburb":"TORONTO","Postcode":2283,"Latitude":-33.0298,"Longitude":151.563,"lgaIdNSW":"14650","EGMs":5},{"Licence number":"LIQC300240681","Licence name":"Lake Macquarie Yacht Club","Address":"Ada St","Suburb":"BELMONT","Postcode":2280,"Latitude":-33.0398,"Longitude":151.6552,"lgaIdNSW":"14650","EGMs":15},{"Licence number":"LIQC300240746","Licence name":"Marks Point Bowling Club Limited","Address":"3A Findon St","Suburb":"MARKS POINT","Postcode":2280,"Latitude":-33.0573,"Longitude":151.6491,"lgaIdNSW":"14650","EGMs":28},{"Licence number":"LIQC300240991","Licence name":"Pelican Flat RSL Sub-branch Club Limited","Address":"1-3 Piriwal St","Suburb":"PELICAN","Postcode":2281,"Latitude":-33.069,"Longitude":151.6445,"lgaIdNSW":"14650","EGMs":60},{"Licence number":"LIQC300241009","Licence name":"Redhead Bowling Club Co-operative Limited","Address":"Burns St","Suburb":"REDHEAD","Postcode":2290,"Latitude":-33.0111,"Longitude":151.7142,"lgaIdNSW":"14650","EGMs":31},{"Licence number":"LIQC300241017","Licence name":"Royal Motor Yacht Club Toronto","Address":"6 Arnott Ave","Suburb":"TORONTO","Postcode":2283,"Latitude":-33.01,"Longitude":151.5953,"lgaIdNSW":"14650","EGMs":15},{"Licence number":"LIQC300241092","Licence name":"Club Macquarie Ltd","Address":"458 Main Rd","Suburb":"ARGENTON","Postcode":2284,"Latitude":-32.9414,"Longitude":151.6239,"lgaIdNSW":"14650","EGMs":93},{"Licence number":"LIQC300241114","Licence name":"Swansea RSL Club Ltd","Address":"Bridge St","Suburb":"SWANSEA","Postcode":2281,"Latitude":-33.0869,"Longitude":151.6401,"lgaIdNSW":"14650","EGMs":79},{"Licence number":"LIQC300241122","Licence name":"Swansea Workers Co-Op Club Ltd","Address":"9 Rawson St","Suburb":"SWANSEA","Postcode":2281,"Latitude":-33.083,"Longitude":151.635,"lgaIdNSW":"14650","EGMs":32},{"Licence number":"LIQC300241149","Licence name":"Teralba Bowling Club Co-operative Limited","Address":"367 York Street","Suburb":"TERALBA","Postcode":2284,"Latitude":-32.959,"Longitude":151.611,"lgaIdNSW":"14650","EGMs":19},{"Licence number":"LIQC300241173","Licence name":"Toronto District Workers Club Limited","Address":"9 James St","Suburb":"TORONTO","Postcode":2283,"Latitude":-33.0101,"Longitude":151.5919,"lgaIdNSW":"14650","EGMs":152},{"Licence number":"LIQC300241181","Licence name":"Toronto RSL Memorial Club Limited","Address":"41 The Boulevarde","Suburb":"TORONTO","Postcode":2283,"Latitude":-33.0134,"Longitude":151.5959,"lgaIdNSW":"14650","EGMs":85},{"Licence number":"LIQC300241246","Licence name":"Valentine Bowling Club Ltd","Address":"17A Valentine Cres","Suburb":"VALENTINE","Postcode":2280,"Latitude":-33.005,"Longitude":151.6406,"lgaIdNSW":"14650","EGMs":39},{"Licence number":"LIQC300241289","Licence name":"Wangi Bowling Club Co-operative Limited","Address":"4A Minnamoora Street","Suburb":"WANGI WANGI","Postcode":2267,"Latitude":-33.0669,"Longitude":151.5783,"lgaIdNSW":"14650","EGMs":5},{"Licence number":"LIQC300241297","Licence name":"Wangi RSL Sub-branch Club Limited","Address":"275 Watkins Rd","Suburb":"WANGI WANGI","Postcode":2267,"Latitude":-33.0686,"Longitude":151.5892,"lgaIdNSW":"14650","EGMs":29},{"Licence number":"LIQC300241300","Licence name":"Wangi District Workers Club Ltd","Address":"11-19 Market St","Suburb":"WANGI WANGI","Postcode":2267,"Latitude":-33.0671,"Longitude":151.5797,"lgaIdNSW":"14650","EGMs":65},{"Licence number":"LIQC300241327","Licence name":"Waratah Golf Club Ltd","Address":"456 Lake Rd","Suburb":"ARGENTON","Postcode":2284,"Latitude":-32.9326,"Longitude":151.6297,"lgaIdNSW":"14650","EGMs":7},{"Licence number":"LIQC300241343","Licence name":"Warners Bay Bowling Club Co-operative Limited","Address":"7 Charles St","Suburb":"WARNERS BAY","Postcode":2282,"Latitude":-32.9711,"Longitude":151.6441,"lgaIdNSW":"14650","EGMs":24},{"Licence number":"LIQC300241378","Licence name":"West Wallsend Workers Club Ltd","Address":"49-53 Carrington St","Suburb":"WEST WALLSEND","Postcode":2286,"Latitude":-32.9023,"Longitude":151.5826,"lgaIdNSW":"14650","EGMs":49},{"Licence number":"LIQC300241408","Licence name":"Windale Gateshead Bowling Club","Address":"2A Lake St","Suburb":"WINDALE","Postcode":2306,"Latitude":-32.9908,"Longitude":151.6867,"lgaIdNSW":"14650","EGMs":56},{"Licence number":"LIQC300245128","Licence name":"Central Leagues Club","Address":"71 Bula St","Suburb":"CHARLESTOWN","Postcode":2290,"Latitude":-32.9725,"Longitude":151.7046,"lgaIdNSW":"14650","EGMs":71},{"Licence number":"LIQC300245314","Licence name":"Rathmines Memorial Bowling Club Co-operative Limited","Address":"1 Stilling St","Suburb":"RATHMINES","Postcode":2283,"Latitude":-33.0391,"Longitude":151.5936,"lgaIdNSW":"14650","EGMs":19},{"Licence number":"LIQC324007337","Licence name":"Wests Cardiff","Address":"18 Munibung Rd","Suburb":"CARDIFF","Postcode":2285,"Latitude":-32.9448,"Longitude":151.6546,"lgaIdNSW":"14650","EGMs":224}]
