[{"Licence number":"LIQC300238458","Licence name":"East Lismore Bowling Club Ltd","Address":"76 Neilson St","Suburb":"EAST LISMORE","Postcode":2480,"Latitude":-28.8234,"Longitude":153.2941,"lgaIdNSW":"14850","EGMs":24},{"Licence number":"LIQC300238466","Licence name":"Italo-Australian Sports & Recreation Club","Address":"34 Barrow Lane","Suburb":"NORTH LISMORE","Postcode":2480,"Latitude":-28.8047,"Longitude":153.2701,"lgaIdNSW":"14850","EGMs":11},{"Licence number":"LIQC300238482","Licence name":"Lismore & District Workers Club Limited","Address":"225-231 Keen Street","Suburb":"LISMORE","Postcode":2480,"Latitude":-28.8125,"Longitude":153.2757,"lgaIdNSW":"14850","EGMs":143},{"Licence number":"LIQC300238490","Licence name":"Lismore City Bowling and Recreation Club Limited","Address":"Molesworth St","Suburb":"LISMORE","Postcode":2480,"Latitude":-28.81,"Longitude":153.2739,"lgaIdNSW":"14850","EGMs":8},{"Licence number":"LIQC300238504","Licence name":"Lismore Workers Golf Club","Address":"1 Barham St","Suburb":"EAST LISMORE","Postcode":2480,"Latitude":-28.8224,"Longitude":153.2855,"lgaIdNSW":"14850","EGMs":10},{"Licence number":"LIQC300238512","Licence name":"Lismore Heights Sports Recreation And Community Club Ltd","Address":"181A High St","Suburb":"LISMORE HEIGHTS","Postcode":2480,"Latitude":-28.8061,"Longitude":153.2999,"lgaIdNSW":"14850","EGMs":11},{"Licence number":"LIQC300238539","Licence name":"Nimbin Bowling, Sport & Recreation Club Limited","Address":"25 Sibley St","Suburb":"NIMBIN","Postcode":2480,"Latitude":-28.5945,"Longitude":153.225,"lgaIdNSW":"14850","EGMs":8},{"Licence number":"LIQC300238547","Licence name":"South Lismore Bowling & Recreation Club Limited","Address":"25 Wilson St","Suburb":"SOUTH LISMORE","Postcode":2480,"Latitude":-28.8047,"Longitude":153.2617,"lgaIdNSW":"14850","EGMs":14},{"Licence number":"LIQC324001675","Licence name":"Club Goonellabah","Address":"Weston Park","Suburb":"GOONELLABAH","Postcode":2480,"Latitude":-28.8214,"Longitude":153.3214,"lgaIdNSW":"14850","EGMs":6},{"Licence number":"LIQC324004354","Licence name":"Dunoon & district Sports & Recreation Club","Address":"Balzer Park","Suburb":"DUNOON","Postcode":2480,"Latitude":-28.6829,"Longitude":153.3206,"lgaIdNSW":"14850","EGMs":6},{"Licence number":"LIQC324007362","Licence name":"Lismore Workers Sports Club","Address":"202 Oliver Ave","Suburb":"GOONELLABAH","Postcode":2480,"Latitude":-28.8195,"Longitude":153.3428,"lgaIdNSW":"14850","EGMs":38}]
