[{"Licence number":"LIQC300200418","Licence name":"Workers Hubertus Country Club","Address":"205 Adams Rd","Suburb":"LUDDENHAM","Postcode":2745,"Latitude":-33.8747,"Longitude":150.7151,"lgaIdNSW":"14900","EGMs":46},{"Licence number":"LIQC300227863","Licence name":"John Edmondson V C Memorial Club Limited","Address":"185 George St","Suburb":"LIVERPOOL","Postcode":2170,"Latitude":-33.9222,"Longitude":150.9246,"lgaIdNSW":"14900","EGMs":175},{"Licence number":"LIQC300228924","Licence name":"Brighton Lakes Recreation & Golf Club","Address":"180-182 Nuwarra Rd","Suburb":"MOOREBANK","Postcode":2170,"Latitude":-33.9452,"Longitude":150.9547,"lgaIdNSW":"14900","EGMs":68},{"Licence number":"LIQC300231240","Licence name":"Kemps Creek Sporting & Bowling Club Ltd","Address":"1490 Elizabeth Dr","Suburb":"CECIL PARK","Postcode":2178,"Latitude":-33.8818,"Longitude":150.8054,"lgaIdNSW":"14900","EGMs":100},{"Licence number":"LIQC300231429","Licence name":"Austral Bowling Club Limited","Address":"8th & Edmonson Aves","Suburb":"AUSTRAL","Postcode":2179,"Latitude":-33.9381,"Longitude":150.8119,"lgaIdNSW":"14900","EGMs":43},{"Licence number":"LIQC300231755","Licence name":"Liverpool Catholic Club","Address":"424-458 Hoxton Park Rd","Suburb":"PRESTONS","Postcode":2170,"Latitude":-33.9305,"Longitude":150.8749,"lgaIdNSW":"14900","EGMs":435},{"Licence number":"LIQC324002782","Licence name":"Serbian Cultural Club Incorporated","Address":"256-258 Cowpasture Rd","Suburb":"MIDDLETON GRANGE","Postcode":2171,"Latitude":-33.9185,"Longitude":150.8517,"lgaIdNSW":"14900","EGMs":16},{"Licence number":"LIQC324004709","Licence name":"Moorebank Sports Club Ltd","Address":"Lot 1 Heathcote Road","Suburb":"HAMMONDVILLE","Postcode":2170,"Latitude":-33.9553,"Longitude":150.9571,"lgaIdNSW":"14900","EGMs":181}]
