[{"Licence number":"LIQC300200086","Licence name":"Sporties Tuncurry","Address":"Beach St","Suburb":"TUNCURRY","Postcode":2428,"Latitude":-32.1663,"Longitude":152.5017,"lgaIdNSW":"15240","EGMs":48},{"Licence number":"LIQC300200728","Licence name":"Lansdowne Bowling & Recreation Club Limited","Address":"Tinonee St","Suburb":"LANSDOWNE","Postcode":2430,"Latitude":-31.7805,"Longitude":152.5311,"lgaIdNSW":"15240","EGMs":10},{"Licence number":"LIQC300239047","Licence name":"Forster Bowling Club Limited","Address":"Middle St","Suburb":"FORSTER","Postcode":2428,"Latitude":-32.1849,"Longitude":152.5171,"lgaIdNSW":"15240","EGMs":80},{"Licence number":"LIQC300239055","Licence name":"Forster Tuncurry Memorial Services Club Limited","Address":"19 Strand St","Suburb":"FORSTER","Postcode":2428,"Latitude":-32.1866,"Longitude":152.523,"lgaIdNSW":"15240","EGMs":166},{"Licence number":"LIQC300239063","Licence name":"Forster Tuncurry Golf Club Ltd","Address":"Strand St","Suburb":"FORSTER","Postcode":2428,"Latitude":-32.1875,"Longitude":152.5321,"lgaIdNSW":"15240","EGMs":38},{"Licence number":"LIQC300239071","Licence name":"Gloucester Bowling & Recreation Club Ltd","Address":"Gloucester Park","Suburb":"GLOUCESTER","Postcode":2422,"Latitude":-32.0045,"Longitude":151.9558,"lgaIdNSW":"15240","EGMs":18},{"Licence number":"LIQC300239098","Licence name":"Gloucester Country Club Ltd","Address":"4651 The Bucketts Way S","Suburb":"GLOUCESTER","Postcode":2422,"Latitude":-32.029,"Longitude":151.9479,"lgaIdNSW":"15240","EGMs":6},{"Licence number":"LIQC300239101","Licence name":"Gloucester Soldiers Club Limited","Address":"32 Denison St","Suburb":"GLOUCESTER","Postcode":2422,"Latitude":-32.0068,"Longitude":151.9592,"lgaIdNSW":"15240","EGMs":28},{"Licence number":"LIQC300239128","Licence name":"Club Harrington","Address":"50 Beach St","Suburb":"HARRINGTON","Postcode":2427,"Latitude":-31.8718,"Longitude":152.6839,"lgaIdNSW":"15240","EGMs":42},{"Licence number":"LIQC300239136","Licence name":"Manning Point Bowling Club Ltd","Address":"Manning St","Suburb":"MANNING POINT","Postcode":2430,"Latitude":-31.8958,"Longitude":152.6644,"lgaIdNSW":"15240","EGMs":25},{"Licence number":"LIQC300239144","Licence name":"Taree Aquatic Club Ltd","Address":"1 Macquarie St","Suburb":"TAREE","Postcode":2430,"Latitude":-31.9125,"Longitude":152.4645,"lgaIdNSW":"15240","EGMs":37},{"Licence number":"LIQC300239152","Licence name":"Pacific Palms Recreation Club Limited","Address":"The Lakes Way","Suburb":"ELIZABETH BEACH","Postcode":2428,"Latitude":-32.3334,"Longitude":152.5272,"lgaIdNSW":"15240","EGMs":28},{"Licence number":"LIQC300239160","Licence name":"Taree Railway Institute Bowling Club Limited","Address":"High St","Suburb":"TAREE","Postcode":2430,"Latitude":-31.9079,"Longitude":152.4587,"lgaIdNSW":"15240","EGMs":15},{"Licence number":"LIQC300239195","Licence name":"Club Taree","Address":"121 Wingham Rd","Suburb":"TAREE","Postcode":2430,"Latitude":-31.8951,"Longitude":152.4475,"lgaIdNSW":"15240","EGMs":80},{"Licence number":"LIQC300239209","Licence name":"Taree Leagues Sports Club Ltd","Address":"43 Cowper St","Suburb":"TAREE","Postcode":2430,"Latitude":-31.8985,"Longitude":152.483,"lgaIdNSW":"15240","EGMs":38},{"Licence number":"LIQC300239217","Licence name":"Club West","Address":"Edinburgh Dr","Suburb":"TAREE","Postcode":2430,"Latitude":-31.9221,"Longitude":152.4382,"lgaIdNSW":"15240","EGMs":39},{"Licence number":"LIQC300239225","Licence name":"Tuncurry Beach Bowling Club","Address":"21 Parkes St","Suburb":"TUNCURRY","Postcode":2428,"Latitude":-32.1718,"Longitude":152.501,"lgaIdNSW":"15240","EGMs":80},{"Licence number":"LIQC300239233","Licence name":"Wingham Sporties","Address":"25 Combined St","Suburb":"WINGHAM","Postcode":2429,"Latitude":-31.8672,"Longitude":152.3744,"lgaIdNSW":"15240","EGMs":12},{"Licence number":"LIQC300239241","Licence name":"Wingham District Memorial Services Club Ltd","Address":"28-38 Bent St","Suburb":"WINGHAM","Postcode":2429,"Latitude":-31.8699,"Longitude":152.3736,"lgaIdNSW":"15240","EGMs":62},{"Licence number":"LIQC300239268","Licence name":"Wingham Golf Club Limited","Address":"Country Club Dr","Suburb":"WINGHAM","Postcode":2429,"Latitude":-31.8701,"Longitude":152.3534,"lgaIdNSW":"15240","EGMs":11},{"Licence number":"LIQC300242110","Licence name":"Bulahdelah Golf Club Ltd","Address":"Pacific Hwy","Suburb":"BULAHDELAH","Postcode":2423,"Latitude":-32.3935,"Longitude":152.2215,"lgaIdNSW":"15240","EGMs":7},{"Licence number":"LIQC300242129","Licence name":"Bulahdelah Bowling Club Ltd","Address":"50 Jackson St","Suburb":"BULAHDELAH","Postcode":2423,"Latitude":-32.4073,"Longitude":152.2054,"lgaIdNSW":"15240","EGMs":20},{"Licence number":"LIQC300242196","Licence name":"Stroud & District Country Club Ltd","Address":"90 Trunk Rd","Suburb":"STROUD","Postcode":2425,"Latitude":-32.3882,"Longitude":151.9573,"lgaIdNSW":"15240","EGMs":8},{"Licence number":"LIQC300242218","Licence name":"Tea Gardens Country Club Ltd","Address":"2A Yalinbah St","Suburb":"TEA GARDENS","Postcode":2324,"Latitude":-32.6646,"Longitude":152.1528,"lgaIdNSW":"15240","EGMs":49},{"Licence number":"LIQC300244571","Licence name":"Club Old Bar","Address":"1 Belford St","Suburb":"OLD BAR","Postcode":2430,"Latitude":-31.9653,"Longitude":152.5865,"lgaIdNSW":"15240","EGMs":55},{"Licence number":"LIQC300244768","Licence name":"Black Head Bowling Club","Address":"Main St","Suburb":"BLACK HEAD","Postcode":2430,"Latitude":-32.0733,"Longitude":152.5459,"lgaIdNSW":"15240","EGMs":17},{"Licence number":"LIQC300245586","Licence name":"Hawks Nest Golf Club Limited","Address":"1 Sanderling Ave","Suburb":"HAWKS NEST","Postcode":2324,"Latitude":-32.6683,"Longitude":152.1834,"lgaIdNSW":"15240","EGMs":40},{"Licence number":"LIQC324003112","Licence name":"Pacific Palms Bowling Club Limited","Address":"8 Paradise Drive","Suburb":"SMITHS LAKE","Postcode":2428,"Latitude":-32.3722,"Longitude":152.5011,"lgaIdNSW":"15240","EGMs":21}]
