[{"Licence number":"LIQC300236986","Licence name":"Barham & District Services Memorial Club Limited","Address":"6-8 Niemur St","Suburb":"BARHAM","Postcode":2732,"Latitude":-35.6311,"Longitude":144.1288,"lgaIdNSW":"15520","EGMs":125},{"Licence number":"LIQC300236994","Licence name":"Barham Golf & Country Club","Address":"Moulamein Rd","Suburb":"BARHAM","Postcode":2732,"Latitude":-35.6099,"Longitude":144.1339,"lgaIdNSW":"15520","EGMs":8},{"Licence number":"LIQC300237052","Licence name":"Moama Bowling Club","Address":"6 Shaw St","Suburb":"MOAMA","Postcode":2731,"Latitude":-36.114,"Longitude":144.7589,"lgaIdNSW":"15520","EGMs":302},{"Licence number":"LIQC300237060","Licence name":"Moulamein Bowling Club Ltd","Address":"Endeavour Dr","Suburb":"MOULAMEIN","Postcode":2733,"Latitude":-35.0927,"Longitude":144.0293,"lgaIdNSW":"15520","EGMs":13},{"Licence number":"LIQC300237079","Licence name":"Wakool Services Club Pty Ltd","Address":"39 Flinders St","Suburb":"WAKOOL","Postcode":2710,"Latitude":-35.4677,"Longitude":144.3938,"lgaIdNSW":"15520","EGMs":9},{"Licence number":"LIQC300245047","Licence name":"Mathoura District & Servicemen's Bowling Club Limited","Address":"Cobb Hwy","Suburb":"MATHOURA","Postcode":2710,"Latitude":-35.809,"Longitude":144.8998,"lgaIdNSW":"15520","EGMs":41},{"Licence number":"LIQC300245640","Licence name":"Tooleybuc Sporting Club Limited","Address":"Lockharts Rd","Suburb":"TOOLEYBUC","Postcode":2736,"Latitude":-35.0243,"Longitude":143.3367,"lgaIdNSW":"15520","EGMs":42},{"Licence number":"LIQC300245705","Licence name":"Rich River Golf Club Limited","Address":"Twenty Four Lane","Suburb":"MOAMA","Postcode":2731,"Latitude":-36.0727,"Longitude":144.7322,"lgaIdNSW":"15520","EGMs":155},{"Licence number":"LIQC324001576","Licence name":"Murray Downs Golf & Country Club Ltd","Address":"Moulamein & Swan Hill Rds","Suburb":"MURRAY DOWNS","Postcode":2734,"Latitude":-35.3491,"Longitude":143.6089,"lgaIdNSW":"15520","EGMs":91},{"Licence number":"LIQC324003126","Licence name":"Echuca - Moama RSL & Citizens Club Limited","Address":"Merool Ln","Suburb":"MOAMA","Postcode":2731,"Latitude":-36.1037,"Longitude":144.7323,"lgaIdNSW":"15520","EGMs":139}]
