[{"Licence number":"LIQC300200140","Licence name":"Nambucca Leagues & Sports Club Ltd","Address":"24 Short St","Suburb":"NAMBUCCA HEADS","Postcode":2448,"Latitude":-30.6403,"Longitude":153.0073,"lgaIdNSW":"15700","EGMs":15},{"Licence number":"LIQC300239926","Licence name":"Bowraville & District Ex-Services Club Limited","Address":"57 High St","Suburb":"BOWRAVILLE","Postcode":2449,"Latitude":-30.6487,"Longitude":152.8528,"lgaIdNSW":"15700","EGMs":16},{"Licence number":"LIQC300239934","Licence name":"Bowraville Recreation Club Co-operative Limited","Address":"2 South Arm Rd","Suburb":"BOWRAVILLE","Postcode":2449,"Latitude":-30.65,"Longitude":152.8491,"lgaIdNSW":"15700","EGMs":6},{"Licence number":"LIQC300239950","Licence name":"Macksville District Ex-Servicemans Club Limited","Address":"16 Cooper St","Suburb":"MACKSVILLE","Postcode":2447,"Latitude":-30.7084,"Longitude":152.92,"lgaIdNSW":"15700","EGMs":40},{"Licence number":"LIQC300239969","Licence name":"Macksville Country Club Limited","Address":"Wallace St","Suburb":"MACKSVILLE","Postcode":2447,"Latitude":-30.7245,"Longitude":152.9166,"lgaIdNSW":"15700","EGMs":10},{"Licence number":"LIQC300239977","Licence name":"Nambucca Heads Bowling & Recreation Club Limited","Address":"Nelson St","Suburb":"NAMBUCCA HEADS","Postcode":2448,"Latitude":-30.644,"Longitude":153.0008,"lgaIdNSW":"15700","EGMs":37},{"Licence number":"LIQC300239985","Licence name":"Nambucca Heads RSL Club","Address":"3 Nelson St","Suburb":"NAMBUCCA HEADS","Postcode":2448,"Latitude":-30.6454,"Longitude":153.0027,"lgaIdNSW":"15700","EGMs":80},{"Licence number":"LIQC300239993","Licence name":"Nambucca Heads Island Golf Club","Address":"Stuarts Island","Suburb":"NAMBUCCA HEADS","Postcode":2448,"Latitude":-30.655,"Longitude":152.9951,"lgaIdNSW":"15700","EGMs":13},{"Licence number":"LIQC300240002","Licence name":"Club Scotts","Address":"26 West St","Suburb":"SCOTTS HEAD","Postcode":2447,"Latitude":-30.7457,"Longitude":152.993,"lgaIdNSW":"15700","EGMs":20}]
