[{"Licence number":"LIQC300225380","Licence name":"Avalon Beach RSL Club Ltd","Address":"1 Bowling Green Lane","Suburb":"AVALON BEACH","Postcode":2107,"Latitude":-33.6354,"Longitude":151.3286,"lgaIdNSW":"15990","EGMs":53},{"Licence number":"LIQC300225429","Licence name":"Balgowlah Golf Club Ltd","Address":"506 Sydney Rd","Suburb":"BALGOWLAH","Postcode":2093,"Latitude":-33.7952,"Longitude":151.2549,"lgaIdNSW":"15990","EGMs":3},{"Licence number":"LIQC300225437","Licence name":"Balgowlah RSL Memorial Club","Address":"547 Sydney Rd","Suburb":"SEAFORTH","Postcode":2092,"Latitude":-33.7971,"Longitude":151.2517,"lgaIdNSW":"15990","EGMs":120},{"Licence number":"LIQC300225607","Licence name":"Bayview Golf Club Limited","Address":"Darley St","Suburb":"BAYVIEW","Postcode":2104,"Latitude":-33.6702,"Longitude":151.3013,"lgaIdNSW":"15990","EGMs":10},{"Licence number":"LIQC300225682","Licence name":"Belrose Bowling Club Ltd","Address":"146 Forest Way","Suburb":"BELROSE","Postcode":2085,"Latitude":-33.734,"Longitude":151.2199,"lgaIdNSW":"15990","EGMs":45},{"Licence number":"LIQC300226514","Licence name":"Collaroy Services Beach Club Ltd","Address":"Arlington Hall, 1058 PIttwater Rd","Suburb":"COLLAROY","Postcode":2097,"Latitude":-33.7318,"Longitude":151.3015,"lgaIdNSW":"15990","EGMs":45},{"Licence number":"LIQC300226875","Licence name":"Dee Why Bowling Club Limited","Address":"223 Fisher Rd North","Suburb":"CROMER","Postcode":2099,"Latitude":-33.7388,"Longitude":151.2812,"lgaIdNSW":"15990","EGMs":14},{"Licence number":"LIQC300226883","Licence name":"Dee Why RSL Club Limited","Address":"932 Pittwater Rd","Suburb":"DEE WHY","Postcode":2099,"Latitude":-33.7504,"Longitude":151.2901,"lgaIdNSW":"15990","EGMs":454},{"Licence number":"LIQC300227332","Licence name":"Forestville RSL Club Limited","Address":"22 Melwood Ave","Suburb":"FORESTVILLE","Postcode":2087,"Latitude":-33.7628,"Longitude":151.2107,"lgaIdNSW":"15990","EGMs":96},{"Licence number":"LIQC300227634","Licence name":"Harbord Bowling & Recreation Club Ltd","Address":"Bennett St","Suburb":"Curl Curl","Postcode":2096,"Latitude":-33.7681,"Longitude":151.2841,"lgaIdNSW":"15990","EGMs":21},{"Licence number":"LIQC300227642","Licence name":"Harbord Diggers - Mounties Group","Address":"80 Evans St","Suburb":"FRESHWATER","Postcode":2096,"Latitude":-33.7792,"Longitude":151.2928,"lgaIdNSW":"15990","EGMs":171},{"Licence number":"LIQC300228282","Licence name":"Long Reef Golf Club","Address":"Anzac Ave","Suburb":"COLLAROY","Postcode":2097,"Latitude":-33.7387,"Longitude":151.3067,"lgaIdNSW":"15990","EGMs":11},{"Licence number":"LIQC300228355","Licence name":"Manly Bowling Club","Address":"Raglan St","Suburb":"MANLY","Postcode":2095,"Latitude":-33.7955,"Longitude":151.2828,"lgaIdNSW":"15990","EGMs":39},{"Licence number":"LIQC300228363","Licence name":"The Manly Club on Gilbert Park","Address":"1 West Promenade","Suburb":"MANLY","Postcode":2095,"Latitude":-33.7975,"Longitude":151.2843,"lgaIdNSW":"15990","EGMs":50},{"Licence number":"LIQC300228428","Licence name":"Manly Sixteen Foot Skiff Sailing Club Limited","Address":"Off East Esp & Stuart St","Suburb":"MANLY","Postcode":2095,"Latitude":-33.8033,"Longitude":151.285,"lgaIdNSW":"15990","EGMs":16},{"Licence number":"LIQC300228436","Licence name":"Manly Vale - Calabria Bowling Sports & Social Club Limited","Address":"Campbell Pde","Suburb":"MANLY VALE","Postcode":2093,"Latitude":-33.7812,"Longitude":151.2735,"lgaIdNSW":"15990","EGMs":8},{"Licence number":"LIQC300228444","Licence name":"Manly Warringah Master Builders Club Ltd","Address":"18 Fisher Rd","Suburb":"DEE WHY","Postcode":2099,"Latitude":-33.7533,"Longitude":151.2845,"lgaIdNSW":"15990","EGMs":29},{"Licence number":"LIQC300228452","Licence name":"Manly Warringah Rugby League Club Limited","Address":"563 Pittwater Rd","Suburb":"BROOKVALE","Postcode":2100,"Latitude":-33.7601,"Longitude":151.2778,"lgaIdNSW":"15990","EGMs":150},{"Licence number":"LIQC300228746","Licence name":"Mona Vale Bowling Club","Address":"1598 Pittwater Rd","Suburb":"MONA VALE","Postcode":2103,"Latitude":-33.6808,"Longitude":151.3038,"lgaIdNSW":"15990","EGMs":8},{"Licence number":"LIQC300228754","Licence name":"Mona Vale Golf Club","Address":"Golf Ave","Suburb":"MONA VALE","Postcode":2103,"Latitude":-33.6798,"Longitude":151.3096,"lgaIdNSW":"15990","EGMs":6},{"Licence number":"LIQC300228886","Licence name":"Narrabeen R S L Memorial & Recreational Club Ltd","Address":"116 Nareen Pde","Suburb":"NORTH NARRABEEN","Postcode":2101,"Latitude":-33.7009,"Longitude":151.286,"lgaIdNSW":"15990","EGMs":24},{"Licence number":"LIQC300228932","Licence name":"Newport Bowling Club","Address":"Cnr Palm & Barrenjoey Rds","Suburb":"NEWPORT","Postcode":2106,"Latitude":-33.6574,"Longitude":151.3181,"lgaIdNSW":"15990","EGMs":7},{"Licence number":"LIQC300228991","Licence name":"New South Wales Gun Club Limited","Address":"131 Booralie Rd","Suburb":"DUFFYS FOREST","Postcode":2084,"Latitude":-33.6729,"Longitude":151.1929,"lgaIdNSW":"15990","EGMs":3},{"Licence number":"LIQC300229386","Licence name":"Palm Beach RSL Sub-branch Club Limited","Address":"1087 Barrenjoey Rd","Suburb":"PALM BEACH","Postcode":2108,"Latitude":-33.6004,"Longitude":151.3185,"lgaIdNSW":"15990","EGMs":38},{"Licence number":"LIQC300229564","Licence name":"Pittwater RSL Club Ltd","Address":"82 Mona Vale Rd","Suburb":"MONA VALE","Postcode":2103,"Latitude":-33.6779,"Longitude":151.2932,"lgaIdNSW":"15990","EGMs":177},{"Licence number":"LIQC300230031","Licence name":"Royal Motor Yacht Club Broken Bay, New South Wales","Address":"46 Prince Alfred Pde","Suburb":"NEWPORT","Postcode":2106,"Latitude":-33.6519,"Longitude":151.3023,"lgaIdNSW":"15990","EGMs":39},{"Licence number":"LIQC300230813","Licence name":"Warringah Golf Club Limited","Address":"397 Condamine St","Suburb":"ALLAMBIE HEIGHTS","Postcode":2100,"Latitude":-33.7757,"Longitude":151.2658,"lgaIdNSW":"15990","EGMs":12},{"Licence number":"LIQC300231291","Licence name":"Manly Warringah Masonic & Community Club","Address":"203 Condamine St","Suburb":"BALGOWLAH","Postcode":2093,"Latitude":-33.793,"Longitude":151.2634,"lgaIdNSW":"15990","EGMs":47}]
