[{"Licence number":"LIQC300241521","Licence name":"PARKES BOWLING AND SPORTS CLUB LIMITED","Address":"6 Cecile St","Suburb":"PARKES","Postcode":2870,"Latitude":-33.1381,"Longitude":148.1712,"lgaIdNSW":"16200","EGMs":8},{"Licence number":"LIQC300241548","Licence name":"Parkes Service & Citizens Club Co-operative Limited","Address":"9-17 Short St","Suburb":"PARKES","Postcode":2870,"Latitude":-33.1414,"Longitude":148.1741,"lgaIdNSW":"16200","EGMs":73},{"Licence number":"LIQC300241556","Licence name":"Parkes Golf Club Co-operative Limited","Address":"99 London Rd","Suburb":"PARKES","Postcode":2870,"Latitude":-33.1515,"Longitude":148.1535,"lgaIdNSW":"16200","EGMs":3},{"Licence number":"LIQC300241564","Licence name":"Jets Sports Club Limited","Address":"194 Clarinda St","Suburb":"PARKES","Postcode":2870,"Latitude":-33.1388,"Longitude":148.1748,"lgaIdNSW":"16200","EGMs":53},{"Licence number":"LIQC300241572","Licence name":"Parkes Railway Institute Bowling Club Limited","Address":"4 Hooley St","Suburb":"PARKES","Postcode":2870,"Latitude":-33.1402,"Longitude":148.1681,"lgaIdNSW":"16200","EGMs":4},{"Licence number":"LIQC300241602","Licence name":"Trundle Services & Citizens Club Ltd","Address":"99 Forbes St","Suburb":"TRUNDLE","Postcode":2875,"Latitude":-32.9201,"Longitude":147.7097,"lgaIdNSW":"16200","EGMs":13},{"Licence number":"LIQC300241610","Licence name":"Tullamore Bowling & Citizens Club Limited","Address":"16 Haylock St","Suburb":"TULLAMORE","Postcode":2874,"Latitude":-32.6312,"Longitude":147.5674,"lgaIdNSW":"16200","EGMs":6},{"Licence number":"LIQC300241629","Licence name":"Peak Hill Bowling Club Co-operative Limited","Address":"54 Caswell St","Suburb":"PEAK HILL","Postcode":2869,"Latitude":-32.7231,"Longitude":148.1902,"lgaIdNSW":"16200","EGMs":6},{"Licence number":"LIQC300241645","Licence name":"Peak Hill Ex-Services & Citizens Club Ltd","Address":"57-61 Caswell St","Suburb":"PEAK HILL","Postcode":2869,"Latitude":-32.7231,"Longitude":148.1909,"lgaIdNSW":"16200","EGMs":18}]
