[{"Licence number":"LIQC300225283","Licence name":"Dooleys Waterview Club","Address":"Silverwater Rd & Clyde St","Suburb":"SILVERWATER","Postcode":2128,"Latitude":-33.8262,"Longitude":151.0503,"lgaIdNSW":"16260","EGMs":66},{"Licence number":"LIQC300226239","Licence name":"Carlingford Bowling, Sports & Recreation Club","Address":"Cox Park","Suburb":"CARLINGFORD","Postcode":2118,"Latitude":-33.783,"Longitude":151.0495,"lgaIdNSW":"16260","EGMs":49},{"Licence number":"LIQC300226425","Licence name":"City Of Parramatta RSL Club","Address":"O'Connell & Macquarie Sts","Suburb":"PARRAMATTA","Postcode":2150,"Latitude":-33.8136,"Longitude":150.9988,"lgaIdNSW":"16260","EGMs":149},{"Licence number":"LIQC300226816","Licence name":"Dundas Sports & Recreation Club Ltd","Address":"9 Elder Rd","Suburb":"DUNDAS","Postcode":2117,"Latitude":-33.8039,"Longitude":151.0397,"lgaIdNSW":"16260","EGMs":36},{"Licence number":"LIQC300227006","Licence name":"Viking Sports Club Limited","Address":"35 Quarry Rd","Suburb":"DUNDAS VALLEY","Postcode":2117,"Latitude":-33.7943,"Longitude":151.0524,"lgaIdNSW":"16260","EGMs":76},{"Licence number":"LIQC300227243","Licence name":"The Epping Club Limited","Address":"45-47 Rawson St","Suburb":"EPPING","Postcode":2121,"Latitude":-33.7733,"Longitude":151.0806,"lgaIdNSW":"16260","EGMs":244},{"Licence number":"LIQC300228878","Licence name":"Muirfield Golf Club Ltd","Address":"Barclay Rd","Suburb":"NORTH ROCKS","Postcode":2151,"Latitude":-33.7656,"Longitude":151.0166,"lgaIdNSW":"16260","EGMs":14},{"Licence number":"LIQC300229203","Licence name":"NBC SPORTS CLUB","Address":"166 Windsor Rd","Suburb":"NORTHMEAD","Postcode":2152,"Latitude":-33.7819,"Longitude":150.996,"lgaIdNSW":"16260","EGMs":44},{"Licence number":"LIQC300229459","Licence name":"Parramatta Leagues Club","Address":"13-15 O'Connell St","Suburb":"PARRAMATTA","Postcode":2150,"Latitude":-33.8058,"Longitude":151.0015,"lgaIdNSW":"16260","EGMs":439},{"Licence number":"LIQC300229920","Licence name":"Rosehill Bowling Club","Address":"Cnr James Ruse Drive & Hassell Street","Suburb":"ROSEHILL","Postcode":2142,"Latitude":-33.8188,"Longitude":151.021,"lgaIdNSW":"16260","EGMs":50},{"Licence number":"LIQC300230694","Licence name":"Toongabbie Sports Club","Address":"12 Station Rd","Suburb":"TOONGABBIE","Postcode":2146,"Latitude":-33.7841,"Longitude":150.9522,"lgaIdNSW":"16260","EGMs":55}]
