[{"Licence number":"LIQC300239039","Licence name":"Comboyne Ex-Servicemens & Citizens Club Limited","Address":"3-5 Comboyne St","Suburb":"COMBOYNE","Postcode":2429,"Latitude":-31.6048,"Longitude":152.4682,"lgaIdNSW":"16380","EGMs":10},{"Licence number":"LIQC300242005","Licence name":"Kew Country Club","Address":"185 Kendall Rd","Suburb":"KEW","Postcode":2439,"Latitude":-31.629,"Longitude":152.72,"lgaIdNSW":"16380","EGMs":11},{"Licence number":"LIQC300242013","Licence name":"The Westport Club","Address":"Buller St","Suburb":"PORT MACQUARIE","Postcode":2444,"Latitude":-31.4302,"Longitude":152.9017,"lgaIdNSW":"16380","EGMs":218},{"Licence number":"LIQC300242021","Licence name":"Kendall Services & Citizens Club Limited","Address":"4 Graham St","Suburb":"KENDALL","Postcode":2439,"Latitude":-31.6319,"Longitude":152.706,"lgaIdNSW":"16380","EGMs":15},{"Licence number":"LIQC300242048","Licence name":"Laurieton United Services Club","Address":"2 Seymour St","Suburb":"LAURIETON","Postcode":2443,"Latitude":-31.6508,"Longitude":152.7989,"lgaIdNSW":"16380","EGMs":92},{"Licence number":"LIQC300242056","Licence name":"Club North Haven","Address":"1 Woodford Rd","Suburb":"NORTH HAVEN","Postcode":2443,"Latitude":-31.6386,"Longitude":152.82,"lgaIdNSW":"16380","EGMs":66},{"Licence number":"LIQC300242064","Licence name":"Port Macquarie City Bowling Club Limited","Address":"4 Owen St","Suburb":"PORT MACQUARIE","Postcode":2444,"Latitude":-31.4316,"Longitude":152.9205,"lgaIdNSW":"16380","EGMs":140},{"Licence number":"LIQC300242072","Licence name":"Port Macquarie Golf Club Limited","Address":"Tacking Point","Suburb":"PORT MACQUARIE","Postcode":2444,"Latitude":-31.4856,"Longitude":152.9141,"lgaIdNSW":"16380","EGMs":32},{"Licence number":"LIQC300242080","Licence name":"Port Macquarie Panthers","Address":"Lot 3 Bay & Park Sts","Suburb":"PORT MACQUARIE","Postcode":2444,"Latitude":-31.4262,"Longitude":152.896,"lgaIdNSW":"16380","EGMs":228},{"Licence number":"LIQC300242099","Licence name":"Wauchope Country Club Limited","Address":"24 King St","Suburb":"WAUCHOPE","Postcode":2446,"Latitude":-31.4628,"Longitude":152.7285,"lgaIdNSW":"16380","EGMs":31},{"Licence number":"LIQC300242102","Licence name":"Wauchope RSL Club Ltd","Address":"Young St","Suburb":"WAUCHOPE","Postcode":2446,"Latitude":-31.4555,"Longitude":152.7342,"lgaIdNSW":"16380","EGMs":83},{"Licence number":"LIQC300245241","Licence name":"Club Lake Cathie","Address":"45 Evans St","Suburb":"LAKE CATHIE","Postcode":2445,"Latitude":-31.5452,"Longitude":152.8578,"lgaIdNSW":"16380","EGMs":34},{"Licence number":"LIQC324004873","Licence name":"Telegraph Point Sports & Recreation Club Limited","Address":"182 Mooney St","Suburb":"TELEGRAPH POINT","Postcode":2441,"Latitude":-31.3326,"Longitude":152.7954,"lgaIdNSW":"16380","EGMs":7},{"Licence number":"LIQC324007356","Licence name":"Hibbard Sports Club Limited","Address":"52 Boundary Rd","Suburb":"PORT MACQUARIE","Postcode":2444,"Latitude":-31.4257,"Longitude":152.8729,"lgaIdNSW":"16380","EGMs":8}]
