[{"Licence number":"LIQC300200507","Licence name":"Tanilba Bay Golf Club","Address":"988 Lemon Tree Passage Rd","Suburb":"TANILBA BAY","Postcode":2319,"Latitude":-32.7404,"Longitude":151.9952,"lgaIdNSW":"16400","EGMs":10},{"Licence number":"LIQC300242137","Licence name":"Karuah & District RSL Club Limited","Address":"436 Tarean Rd","Suburb":"KARUAH","Postcode":2324,"Latitude":-32.655,"Longitude":151.966,"lgaIdNSW":"16400","EGMs":42},{"Licence number":"LIQC300242145","Licence name":"Lemon Tree Passage Bowling Club Co-operative Limited","Address":"Gould Dr","Suburb":"LEMON TREE PASSAGE","Postcode":2319,"Latitude":-32.7334,"Longitude":152.0333,"lgaIdNSW":"16400","EGMs":69},{"Licence number":"LIQC300242153","Licence name":"Nelson Bay Bowling & Recreation Club","Address":"Stockton St","Suburb":"NELSON BAY","Postcode":2315,"Latitude":-32.7259,"Longitude":152.144,"lgaIdNSW":"16400","EGMs":76},{"Licence number":"LIQC300242161","Licence name":"Wests Nelson Bay","Address":"82-90 Shoal Bay Road","Suburb":"NELSON BAY","Postcode":2315,"Latitude":-32.7169,"Longitude":152.1558,"lgaIdNSW":"16400","EGMs":176},{"Licence number":"LIQC300242188","Licence name":"Soldiers Point Bowling Club Limited","Address":"118 Soldiers Point Rd","Suburb":"SOLDIERS POINT","Postcode":2317,"Latitude":-32.7103,"Longitude":152.0702,"lgaIdNSW":"16400","EGMs":110},{"Licence number":"LIQC300242226","Licence name":"Nelson Bay Golf Club","Address":"53-61 Dowling St","Suburb":"NELSON BAY","Postcode":2315,"Latitude":-32.7259,"Longitude":152.1442,"lgaIdNSW":"16400","EGMs":31},{"Licence number":"LIQC300242382","Licence name":"Muree Golf Club Limited","Address":"Muree Golf Course 1 Walker Cres","Suburb":"RAYMOND TERRACE","Postcode":2324,"Latitude":-32.7638,"Longitude":151.7541,"lgaIdNSW":"16400","EGMs":35},{"Licence number":"LIQC300242390","Licence name":"Raymond Terrace Bowling Club Co-operative Limited","Address":"2 Jacaranda Ave","Suburb":"RAYMOND TERRACE","Postcode":2324,"Latitude":-32.7637,"Longitude":151.7396,"lgaIdNSW":"16400","EGMs":86},{"Licence number":"LIQC300244792","Licence name":"Tomago Bowling & Sporting Club Co-op Limited","Address":"657 Tomago Rd","Suburb":"TOMAGO","Postcode":2322,"Latitude":-32.8294,"Longitude":151.7107,"lgaIdNSW":"16400","EGMs":17},{"Licence number":"LIQC324001255","Licence name":"Tilligerry RSL Sports Club Limited","Address":"Lemon Tree Passage Rd","Suburb":"TANILBA BAY","Postcode":2319,"Latitude":-32.734,"Longitude":152.0045,"lgaIdNSW":"16400","EGMs":35},{"Licence number":"LIQC324001788","Licence name":"Fingal Bay Bowls, Sport & Recreation Club Ltd","Address":"100 Rocky Point Road","Suburb":"FINGAL BAY","Postcode":2315,"Latitude":-32.7442,"Longitude":152.1622,"lgaIdNSW":"16400","EGMs":40},{"Licence number":"LIQC324006846","Licence name":"Newcastle & Port Stephens Game Fishing Club Limited","Address":"57 Shoal Bay Rd","Suburb":"SHOAL BAY","Postcode":2315,"Latitude":-32.7206,"Longitude":152.1735,"lgaIdNSW":"16400","EGMs":15}]
