[{"Licence number":"LIQC300200302","Licence name":"Queanbeyan Australian Football Club Ltd","Address":"30 Queenbar Rd","Suburb":"KARABAR","Postcode":2620,"Latitude":-35.3712,"Longitude":149.2317,"lgaIdNSW":"16490","EGMs":67},{"Licence number":"LIQC300235939","Licence name":"Braidwood Servicemen's Club Limited","Address":"Coronation & Victory Sts","Suburb":"BRAIDWOOD","Postcode":2622,"Latitude":-35.4427,"Longitude":149.7914,"lgaIdNSW":"16490","EGMs":23},{"Licence number":"LIQC300242242","Licence name":"Captains Flat RSL & Citizens Club Ltd","Address":"59-61 Foxlow St","Suburb":"CAPTAINS FLAT","Postcode":2623,"Latitude":-35.5913,"Longitude":149.4455,"lgaIdNSW":"16490","EGMs":6},{"Licence number":"LIQC300242269","Licence name":"The Queanbeyan Bowling Club Ltd","Address":"97 Campbell St","Suburb":"QUEANBEYAN","Postcode":2620,"Latitude":-35.3554,"Longitude":149.2277,"lgaIdNSW":"16490","EGMs":54},{"Licence number":"LIQC300242277","Licence name":"Queanbeyan Golf Club Limited","Address":"5 Brown St","Suburb":"QUEANBEYAN EAST","Postcode":2620,"Latitude":-35.3571,"Longitude":149.2407,"lgaIdNSW":"16490","EGMs":14},{"Licence number":"LIQC300242285","Licence name":"Queanbeyan Leagues Club Limited","Address":"164 Monaro St","Suburb":"QUEANBEYAN","Postcode":2620,"Latitude":-35.3533,"Longitude":149.2364,"lgaIdNSW":"16490","EGMs":309},{"Licence number":"LIQC300242307","Licence name":"Queanbeyan RSL Memorial Bowling Club Limited","Address":"1C Yass Rd","Suburb":"QUEANBEYAN EAST","Postcode":2620,"Latitude":-35.3452,"Longitude":149.2442,"lgaIdNSW":"16490","EGMs":34},{"Licence number":"LIQC300245535","Licence name":"Queanbeyan Kangaroo Rugby League Football Club Limited","Address":"Stuart St & Richard Ave","Suburb":"QUEANBEYAN","Postcode":2620,"Latitude":-35.3505,"Longitude":149.2114,"lgaIdNSW":"16490","EGMs":101}]
