[{"Licence number":"LIQC300226468","Licence name":"Clovelly Bowling & Recreation Club Ltd","Address":"Burrows Park","Suburb":"CLOVELLY","Postcode":2031,"Latitude":-33.9118,"Longitude":151.2704,"lgaIdNSW":"16550","EGMs":10},{"Licence number":"LIQC300226492","Licence name":"Coast Golf & Recreation Club Ltd","Address":"1403 Anzac Pde","Suburb":"LITTLE BAY","Postcode":2036,"Latitude":-33.9794,"Longitude":151.2444,"lgaIdNSW":"16550","EGMs":8},{"Licence number":"LIQC300226581","Licence name":"COOGEE BEACH CLUB","Address":"Dolphin St","Suburb":"COOGEE","Postcode":2034,"Latitude":-33.9181,"Longitude":151.2531,"lgaIdNSW":"16550","EGMs":8},{"Licence number":"LIQC300226603","Licence name":"Coogee Diggers","Address":"2 Byron Street","Suburb":"COOGEE","Postcode":2034,"Latitude":-33.9221,"Longitude":151.2497,"lgaIdNSW":"16550","EGMs":55},{"Licence number":"LIQC300228312","Licence name":"The Juniors Malabar","Address":"28 Victoria St","Suburb":"MALABAR","Postcode":2036,"Latitude":-33.9639,"Longitude":151.2489,"lgaIdNSW":"16550","EGMs":40},{"Licence number":"LIQC300228460","Licence name":"The Juniors Maroubra","Address":"946 Anzac Pde","Suburb":"MAROUBRA","Postcode":2035,"Latitude":-33.9438,"Longitude":151.2405,"lgaIdNSW":"16550","EGMs":46},{"Licence number":"LIQC300228487","Licence name":"Maroubra Seals Sports & Community Club Limited","Address":"216-220 Marine Pde","Suburb":"MAROUBRA","Postcode":2035,"Latitude":-33.947,"Longitude":151.2556,"lgaIdNSW":"16550","EGMs":148},{"Licence number":"LIQC300228622","Licence name":"Matraville R S L Sub-branch Club Ltd","Address":"1 Norfolk Pde","Suburb":"MATRAVILLE","Postcode":2036,"Latitude":-33.9599,"Longitude":151.2321,"lgaIdNSW":"16550","EGMs":82},{"Licence number":"LIQC300229726","Licence name":"Randwick Bowling Club","Address":"2A The Avenue","Suburb":"RANDWICK","Postcode":2031,"Latitude":-33.9099,"Longitude":151.242,"lgaIdNSW":"16550","EGMs":9},{"Licence number":"LIQC300229734","Licence name":"Coogee Legion Ex-Service Club Ltd","Address":"200 Arden St","Suburb":"COOGEE","Postcode":2034,"Latitude":-33.9206,"Longitude":151.2566,"lgaIdNSW":"16550","EGMs":22},{"Licence number":"LIQC300229742","Licence name":"Randwick Golf Club Ltd","Address":"1 Howe St","Suburb":"MALABAR","Postcode":2036,"Latitude":-33.9688,"Longitude":151.2536,"lgaIdNSW":"16550","EGMs":8},{"Licence number":"LIQC300229750","Licence name":"The Randwick Club","Address":"135 Alison Rd","Suburb":"RANDWICK","Postcode":2031,"Latitude":-33.9129,"Longitude":151.2384,"lgaIdNSW":"16550","EGMs":57},{"Licence number":"LIQC300230252","Licence name":"South Coogee Bowling Club Ltd","Address":"5 Henning Ave","Suburb":"SOUTH COOGEE","Postcode":2034,"Latitude":-33.9353,"Longitude":151.2505,"lgaIdNSW":"16550","EGMs":11},{"Licence number":"LIQC300230317","Licence name":"South Sydney Junior Rugby League Club Limited","Address":"558A Anzac Pde","Suburb":"KINGSFORD","Postcode":2032,"Latitude":-33.9255,"Longitude":151.2307,"lgaIdNSW":"16550","EGMs":374},{"Licence number":"LIQC300230503","Licence name":"St Michael's Golf Club Limited","Address":"Little Bay","Suburb":"LITTLE BAY","Postcode":2036,"Latitude":-33.9847,"Longitude":151.2467,"lgaIdNSW":"16550","EGMs":5},{"Licence number":"LIQC300231062","Licence name":"Yarra Bay 16Ft Skiff Sailing Club Limited","Address":"Yarra Rd","Suburb":"PHILLIP BAY","Postcode":2036,"Latitude":-33.9806,"Longitude":151.2295,"lgaIdNSW":"16550","EGMs":24}]
