[{"Licence number":"LIQC300235246","Licence name":"Broadwater Bowling Club","Address":"189 Pacific Hwy","Suburb":"BROADWATER","Postcode":2472,"Latitude":-29.0087,"Longitude":153.4358,"lgaIdNSW":"16610","EGMs":4},{"Licence number":"LIQC300235254","Licence name":"Evans Head Bowling Club Ltd","Address":"2 Beech St","Suburb":"EVANS HEAD","Postcode":2473,"Latitude":-29.1137,"Longitude":153.4315,"lgaIdNSW":"16610","EGMs":46},{"Licence number":"LIQC300235289","Licence name":"Woodburn Evans Head Golf Club Limited","Address":"Beach Rd","Suburb":"WOODBURN","Postcode":2472,"Latitude":-29.0882,"Longitude":153.3707,"lgaIdNSW":"16610","EGMs":4},{"Licence number":"LIQC300235297","Licence name":"Woodburn Evans Head RSL Club Ltd","Address":"Woodburn St","Suburb":"EVANS HEAD","Postcode":2473,"Latitude":-29.1196,"Longitude":153.4322,"lgaIdNSW":"16610","EGMs":56},{"Licence number":"LIQC300242420","Licence name":"Casino Golf Club","Address":"40 West St","Suburb":"CASINO","Postcode":2470,"Latitude":-28.8668,"Longitude":153.0424,"lgaIdNSW":"16610","EGMs":27},{"Licence number":"LIQC300242439","Licence name":"Coraki & District Memorial Bowling Club Ltd","Address":"19 Richmond Tce","Suburb":"CORAKI","Postcode":2471,"Latitude":-28.9919,"Longitude":153.2896,"lgaIdNSW":"16610","EGMs":9},{"Licence number":"LIQC300242447","Licence name":"Coraki Golf Club Ltd","Address":"Kardina St","Suburb":"CORAKI","Postcode":2471,"Latitude":-28.9914,"Longitude":153.2745,"lgaIdNSW":"16610","EGMs":9},{"Licence number":"LIQC300242471","Licence name":"Casino Returned Servicemens Memorial Club Limited","Address":"162 CANTERBURY ST","Suburb":"CASINO","Postcode":2470,"Latitude":-28.8625,"Longitude":153.0494,"lgaIdNSW":"16610","EGMs":90}]
