[{"Licence number":"LIQC300200477","Licence name":"Callala RSL Country Club","Address":"43 Callala Beach Rd","Suburb":"CALLALA BEACH","Postcode":2540,"Latitude":-35.0039,"Longitude":150.6904,"lgaIdNSW":"16950","EGMs":33},{"Licence number":"LIQC300231674","Licence name":"Milton Ulladulla Ex-Servos Club Limited","Address":"212-222 Princes Hwy","Suburb":"ULLADULLA","Postcode":2539,"Latitude":-35.3685,"Longitude":150.4706,"lgaIdNSW":"16950","EGMs":90},{"Licence number":"LIQC300242595","Licence name":"Berry Bowling Club","Address":"140 Princes Hwy","Suburb":"BERRY","Postcode":2535,"Latitude":-34.7758,"Longitude":150.7005,"lgaIdNSW":"16950","EGMs":16},{"Licence number":"LIQC300242609","Licence name":"Bomaderry Bowling Club","Address":"154 Meroo Rd","Suburb":"BOMADERRY","Postcode":2541,"Latitude":-34.849,"Longitude":150.6113,"lgaIdNSW":"16950","EGMs":106},{"Licence number":"LIQC300242617","Licence name":"Bomaderry RSL Club Ltd","Address":"Coomea St","Suburb":"BOMADERRY","Postcode":2541,"Latitude":-34.8525,"Longitude":150.6084,"lgaIdNSW":"16950","EGMs":54},{"Licence number":"LIQC300242625","Licence name":"Culburra Bowling & Recreation Club","Address":"West Cres & Prince Edward Dr","Suburb":"CULBURRA BEACH","Postcode":2540,"Latitude":-34.9323,"Longitude":150.7554,"lgaIdNSW":"16950","EGMs":75},{"Licence number":"LIQC300242633","Licence name":"Husky Sports","Address":"Tomerong St","Suburb":"HUSKISSON","Postcode":2540,"Latitude":-35.0351,"Longitude":150.6646,"lgaIdNSW":"16950","EGMs":32},{"Licence number":"LIQC300242641","Licence name":"Club Jervis Bay","Address":"2-8 Currambene St","Suburb":"HUSKISSON","Postcode":2540,"Latitude":-35.0385,"Longitude":150.6716,"lgaIdNSW":"16950","EGMs":86},{"Licence number":"LIQC300242668","Licence name":"Milton & Ulladulla Bowling Club Co-operative Limited","Address":"68 St Vincent St","Suburb":"ULLADULLA","Postcode":2539,"Latitude":-35.3561,"Longitude":150.4727,"lgaIdNSW":"16950","EGMs":64},{"Licence number":"LIQC300242676","Licence name":"Mollymook Golf Club","Address":"Golf Ave","Suburb":"MOLLYMOOK BEACH","Postcode":2539,"Latitude":-35.3322,"Longitude":150.4616,"lgaIdNSW":"16950","EGMs":129},{"Licence number":"LIQC300242684","Licence name":"Nowra Bowling & Recreation Club Ltd","Address":"40 Junction St","Suburb":"NOWRA","Postcode":2541,"Latitude":-34.8744,"Longitude":150.5975,"lgaIdNSW":"16950","EGMs":29},{"Licence number":"LIQC300242692","Licence name":"Nowra Golf & Recreation Club","Address":"Fairway Dr","Suburb":"North Nowra","Postcode":2541,"Latitude":-34.8676,"Longitude":150.5923,"lgaIdNSW":"16950","EGMs":10},{"Licence number":"LIQC300242706","Licence name":"Shoalhaven Ex-Servicemen's Club Limited","Address":"157 Junction St","Suburb":"NOWRA","Postcode":2541,"Latitude":-34.8746,"Longitude":150.6052,"lgaIdNSW":"16950","EGMs":92},{"Licence number":"LIQC300242714","Licence name":"St Georges Basin Country Club Ltd","Address":"11 Paradise Beach Rd","Suburb":"SANCTUARY POINT","Postcode":2540,"Latitude":-35.1014,"Longitude":150.6283,"lgaIdNSW":"16950","EGMs":153},{"Licence number":"LIQC300242722","Licence name":"Sussex Inlet Bowling Club","Address":"St Georges Ave","Suburb":"SUSSEX INLET","Postcode":2540,"Latitude":-35.1699,"Longitude":150.5901,"lgaIdNSW":"16950","EGMs":43},{"Licence number":"LIQC300242730","Licence name":"Sussex Inlet RSL Club Ltd","Address":"Lot 11 Jacobs Dr","Suburb":"SUSSEX INLET","Postcode":2540,"Latitude":-35.1572,"Longitude":150.6032,"lgaIdNSW":"16950","EGMs":80},{"Licence number":"LIQC300244628","Licence name":"Currarong Bowling & Recreation Club Limited","Address":"16 Currarong Rd","Suburb":"CURRARONG","Postcode":2540,"Latitude":-35.018,"Longitude":150.8221,"lgaIdNSW":"16950","EGMs":24},{"Licence number":"LIQC300244830","Licence name":"Shoalhaven Heads Bowling & Recreation Club Limited","Address":"76 Shoalhaven Heads Rd","Suburb":"SHOALHAVEN HEADS","Postcode":2535,"Latitude":-34.849,"Longitude":150.7378,"lgaIdNSW":"16950","EGMs":65},{"Licence number":"LIQC300244946","Licence name":"Vincentia Golf Club Limited","Address":"49 Murray St","Suburb":"VINCENTIA","Postcode":2540,"Latitude":-35.0805,"Longitude":150.6814,"lgaIdNSW":"16950","EGMs":23},{"Licence number":"LIQC300245233","Licence name":"Greenwell Point Bowling & Sports Club Ltd","Address":"Lot 3 Greens Rd","Suburb":"GREENWELL POINT","Postcode":2540,"Latitude":-34.9153,"Longitude":150.7312,"lgaIdNSW":"16950","EGMs":40},{"Licence number":"LIQC300245292","Licence name":"Mollymook Beach Bowling & Recreation Club","Address":"60 Forest Way","Suburb":"MOLLYMOOK BEACH","Postcode":2539,"Latitude":-35.3247,"Longitude":150.4716,"lgaIdNSW":"16950","EGMs":21},{"Licence number":"LIQC300245675","Licence name":"Lake Conjola District Bowling Club Limited","Address":"180 Lake Conjola Entrance Rd","Suburb":"LAKE CONJOLA","Postcode":2539,"Latitude":-35.2702,"Longitude":150.4767,"lgaIdNSW":"16950","EGMs":22},{"Licence number":"LIQC324008438","Licence name":"Shoalhaven Ex Servicemens Sports Club","Address":"131 Greenwell Point Rd","Suburb":"WORRIGEE","Postcode":2540,"Latitude":-34.8875,"Longitude":150.6277,"lgaIdNSW":"16950","EGMs":87}]
