[{"Licence number":"LIQC300243060","Licence name":"Batlow RSL Club Ltd","Address":"Mayday Rd","Suburb":"BATLOW","Postcode":2730,"Latitude":-35.5198,"Longitude":148.146,"lgaIdNSW":"17080","EGMs":28},{"Licence number":"LIQC300243079","Licence name":"Rosewood Golf Club Limited","Address":"1701 Tumbarumbah Rd","Suburb":"ROSEWOOD","Postcode":2652,"Latitude":-35.6683,"Longitude":147.8589,"lgaIdNSW":"17080","EGMs":6},{"Licence number":"LIQC300243087","Licence name":"Tumbarumba Bowling Club Limited","Address":"39 Winton St","Suburb":"TUMBARUMBA","Postcode":2653,"Latitude":-35.7798,"Longitude":148.0106,"lgaIdNSW":"17080","EGMs":15},{"Licence number":"LIQC300243095","Licence name":"Tumbarumba Golf Club Limited","Address":"Lynne Park Pond Creek Rd","Suburb":"TUMBARUMBA","Postcode":2653,"Latitude":-35.7648,"Longitude":148.0197,"lgaIdNSW":"17080","EGMs":7},{"Licence number":"LIQC300243117","Licence name":"Adelong Services Citizens & Bowling Club Ltd","Address":"54 Tumut St","Suburb":"ADELONG","Postcode":2729,"Latitude":-35.3083,"Longitude":148.0658,"lgaIdNSW":"17080","EGMs":12},{"Licence number":"LIQC300243125","Licence name":"Club Tumut","Address":"25 Richmond St","Suburb":"TUMUT","Postcode":2720,"Latitude":-35.3029,"Longitude":148.2244,"lgaIdNSW":"17080","EGMs":48},{"Licence number":"LIQC300243141","Licence name":"Tumut Golf Club Limited","Address":"Herbert St","Suburb":"TUMUT","Postcode":2720,"Latitude":-35.3101,"Longitude":148.2086,"lgaIdNSW":"17080","EGMs":17},{"Licence number":"LIQC300245616","Licence name":"Talbingo Country Club Ltd","Address":"1 Bridle St","Suburb":"TALBINGO","Postcode":2720,"Latitude":-35.5799,"Longitude":148.3035,"lgaIdNSW":"17080","EGMs":12}]
