[{"Licence number":"LIQC300225062","Licence name":"Alexandria - Erskinville Bowling Club Limited","Address":"1 Fox Ave","Suburb":"ERSKINEVILLE","Postcode":2043,"Latitude":-33.9026,"Longitude":151.1892,"lgaIdNSW":"17200","EGMs":31},{"Licence number":"LIQC300225925","Licence name":"Bowlers Club of NSW Ltd","Address":"95-97 York St","Suburb":"SYDNEY","Postcode":2000,"Latitude":-33.8702,"Longitude":151.2058,"lgaIdNSW":"17200","EGMs":114},{"Licence number":"LIQC300226328","Licence name":"The Catholic Club Ltd","Address":"199 Castlereagh St","Suburb":"SYDNEY","Postcode":2000,"Latitude":-33.8737,"Longitude":151.2088,"lgaIdNSW":"17200","EGMs":59},{"Licence number":"LIQC300226433","Licence name":"City Tattersalls Club","Address":"198-200 Pitt St","Suburb":"SYDNEY","Postcode":2000,"Latitude":-33.8712,"Longitude":151.2086,"lgaIdNSW":"17200","EGMs":168},{"Licence number":"LIQC300226522","Licence name":"Combined Services RSL Club Co Operative Ltd","Address":"5-7 Barrack St","Suburb":"SYDNEY","Postcode":2000,"Latitude":-33.8679,"Longitude":151.2055,"lgaIdNSW":"17200","EGMs":21},{"Licence number":"LIQC300227650","Licence name":"Hellenic Club Limited","Address":"238-240 Castlereagh St","Suburb":"SYDNEY","Postcode":2000,"Latitude":-33.8753,"Longitude":151.2092,"lgaIdNSW":"17200","EGMs":14},{"Licence number":"LIQC300229041","Licence name":"City of Sydney RSL & Community Club Limited","Address":"561-565 George St","Suburb":"SYDNEY","Postcode":2000,"Latitude":-33.8766,"Longitude":151.2058,"lgaIdNSW":"17200","EGMs":120},{"Licence number":"LIQC300229777","Licence name":"Club Redfern","Address":"159 Redfern St","Suburb":"REDFERN","Postcode":2016,"Latitude":-33.8923,"Longitude":151.1997,"lgaIdNSW":"17200","EGMs":29}]
