[{"Licence number":"LIQC300235319","Licence name":"Barraba Bowling Club Ltd","Address":"Queen St","Suburb":"BARRABA","Postcode":2347,"Latitude":-30.3737,"Longitude":150.6107,"lgaIdNSW":"17310","EGMs":14},{"Licence number":"LIQC300235327","Licence name":"Barraba Ex-Servicemen's Club Limited","Address":"2 Maude St","Suburb":"BARRABA","Postcode":2347,"Latitude":-30.3779,"Longitude":150.6127,"lgaIdNSW":"17310","EGMs":17},{"Licence number":"LIQC300235343","Licence name":"Manilla Bowling Club","Address":"95-101 Arthur St","Suburb":"MANILLA","Postcode":2346,"Latitude":-30.7475,"Longitude":150.7249,"lgaIdNSW":"17310","EGMs":14},{"Licence number":"LIQC300235378","Licence name":"Manilla RSL & Ex-Servicemens Club Limited","Address":"25 Court St","Suburb":"MANILLA","Postcode":2346,"Latitude":-30.75,"Longitude":150.7219,"lgaIdNSW":"17310","EGMs":25},{"Licence number":"LIQC300242781","Licence name":"Kootingal & District Bowling Club","Address":"Limbri Rd","Suburb":"KOOTINGAL","Postcode":2352,"Latitude":-31.0476,"Longitude":151.0886,"lgaIdNSW":"17310","EGMs":21},{"Licence number":"LIQC300242803","Licence name":"North Tamworth Bowling Club","Address":"20-26 Bligh St","Suburb":"NORTH TAMWORTH","Postcode":2340,"Latitude":-31.0783,"Longitude":150.9264,"lgaIdNSW":"17310","EGMs":22},{"Licence number":"LIQC300242838","Licence name":"Oxley Bowling Club","Address":"158-168 Piper St","Suburb":"EAST TAMWORTH","Postcode":2340,"Latitude":-31.0789,"Longitude":150.9381,"lgaIdNSW":"17310","EGMs":10},{"Licence number":"LIQC300242862","Licence name":"Tamworth City Bowling Club Ltd","Address":"Napier & Brisbane Sts","Suburb":"EAST TAMWORTH","Postcode":2340,"Latitude":-31.0858,"Longitude":150.9369,"lgaIdNSW":"17310","EGMs":7},{"Licence number":"LIQC300242889","Licence name":"Tamworth Golf Club Ltd","Address":"Mahony Ave","Suburb":"WEST TAMWORTH","Postcode":2340,"Latitude":-31.099,"Longitude":150.9116,"lgaIdNSW":"17310","EGMs":30},{"Licence number":"LIQC300242900","Licence name":"West Diggers","Address":"4 Kable Ave","Suburb":"TAMWORTH","Postcode":2340,"Latitude":-31.0899,"Longitude":150.927,"lgaIdNSW":"17310","EGMs":58},{"Licence number":"LIQC300242919","Licence name":"Tamworth Services Club Limited","Address":"199 Marius St","Suburb":"TAMWORTH","Postcode":2340,"Latitude":-31.0898,"Longitude":150.9315,"lgaIdNSW":"17310","EGMs":60},{"Licence number":"LIQC300242935","Licence name":"West Tamworth Sports & Bowling Club Limited","Address":"103B Belmore St","Suburb":"WEST TAMWORTH","Postcode":2340,"Latitude":-31.0979,"Longitude":150.9177,"lgaIdNSW":"17310","EGMs":13},{"Licence number":"LIQC300242943","Licence name":"West Tamworth League Club Limited","Address":"58 Phillip St","Suburb":"WEST TAMWORTH","Postcode":2340,"Latitude":-31.1024,"Longitude":150.917,"lgaIdNSW":"17310","EGMs":169},{"Licence number":"LIQC300245918","Licence name":"South Tamworth Bowling Club Ltd","Address":"11-23 Margaret Street","Suburb":"SOUTH TAMWORTH","Postcode":2340,"Latitude":-31.1084,"Longitude":150.9208,"lgaIdNSW":"17310","EGMs":32}]
