[{"Licence number":"LIQC300237737","Licence name":"Cassilis Bowling Club","Address":"Mudgee Rd","Suburb":"CASSILIS","Postcode":2329,"Latitude":-32.0104,"Longitude":149.9783,"lgaIdNSW":"17620","EGMs":5},{"Licence number":"LIQC300239594","Licence name":"Murrurundi Bowling Club","Address":"131 Mayne St","Suburb":"MURRURUNDI","Postcode":2338,"Latitude":-31.763,"Longitude":150.8328,"lgaIdNSW":"17620","EGMs":15},{"Licence number":"LIQC300239837","Licence name":"Merriwa Sports Club","Address":"46 King George Ave","Suburb":"MERRIWA","Postcode":2329,"Latitude":-32.1399,"Longitude":150.3625,"lgaIdNSW":"17620","EGMs":11},{"Licence number":"LIQC300239853","Licence name":"Merriwa RSL Club Ltd","Address":"120-126 Bettington St","Suburb":"MERRIWA","Postcode":2329,"Latitude":-32.1387,"Longitude":150.3539,"lgaIdNSW":"17620","EGMs":22},{"Licence number":"LIQC300242544","Licence name":"Aberdeen Bowling Club","Address":"Jefferson Park","Suburb":"ABERDEEN","Postcode":2336,"Latitude":-32.1605,"Longitude":150.8858,"lgaIdNSW":"17620","EGMs":12},{"Licence number":"LIQC300242552","Licence name":"Aberdeen RSL & Citizens Club Limited","Address":"23 MORAY ST","Suburb":"ABERDEEN","Postcode":2336,"Latitude":-32.1641,"Longitude":150.8904,"lgaIdNSW":"17620","EGMs":10},{"Licence number":"LIQC300242560","Licence name":"Scone Bowling Club Limited","Address":"28-36 Gundy Rd","Suburb":"SCONE","Postcode":2337,"Latitude":-32.0556,"Longitude":150.8739,"lgaIdNSW":"17620","EGMs":31},{"Licence number":"LIQC300242579","Licence name":"Scone Sporties","Address":"Aberdeen St","Suburb":"SCONE","Postcode":2337,"Latitude":-32.0531,"Longitude":150.8602,"lgaIdNSW":"17620","EGMs":4},{"Licence number":"LIQC300242587","Licence name":"Scone R.S.L. Club Limited","Address":"71 Guernsey St","Suburb":"SCONE","Postcode":2337,"Latitude":-32.0514,"Longitude":150.8644,"lgaIdNSW":"17620","EGMs":42}]
