[{"Licence number":"LIQC300200450","Licence name":"Binnaway District Golf Club Ltd","Address":"New Mollyann Rd","Suburb":"BINNAWAY","Postcode":2395,"Latitude":-31.5513,"Longitude":149.3631,"lgaIdNSW":"18020","EGMs":6},{"Licence number":"LIQC300236625","Licence name":"Baradine Bowling and Sporting Club Limited","Address":"Narren St","Suburb":"BARADINE","Postcode":2396,"Latitude":-30.9526,"Longitude":149.0681,"lgaIdNSW":"18020","EGMs":8},{"Licence number":"LIQC300236668","Licence name":"Binnaway Bowling Club Co-operative Limited","Address":"50 Bullinda St","Suburb":"BINNAWAY","Postcode":2395,"Latitude":-31.5551,"Longitude":149.3792,"lgaIdNSW":"18020","EGMs":7},{"Licence number":"LIQC300236684","Licence name":"Coonabarabran Bowling Club Co-operative Limited","Address":"Edwards St","Suburb":"COONABARABRAN","Postcode":2357,"Latitude":-31.2775,"Longitude":149.2771,"lgaIdNSW":"18020","EGMs":25},{"Licence number":"LIQC300236692","Licence name":"Coonabarabran Golf Club","Address":"River Rd","Suburb":"COONABARABRAN","Postcode":2357,"Latitude":-31.2705,"Longitude":149.2964,"lgaIdNSW":"18020","EGMs":11},{"Licence number":"LIQC300237117","Licence name":"Dunedoo Bowling Club","Address":"Tallawang St","Suburb":"DUNEDOO","Postcode":2844,"Latitude":-32.0184,"Longitude":149.3966,"lgaIdNSW":"18020","EGMs":7},{"Licence number":"LIQC300237125","Licence name":"Dunedoo Sports Club Ltd","Address":"Wargundy St","Suburb":"DUNEDOO","Postcode":2844,"Latitude":-32.0201,"Longitude":149.4009,"lgaIdNSW":"18020","EGMs":6},{"Licence number":"LIQC300237168","Licence name":"Mendooran Bowling Club Ltd","Address":"43 Bandulla St","Suburb":"MENDOORAN","Postcode":2842,"Latitude":-31.8222,"Longitude":149.12,"lgaIdNSW":"18020","EGMs":7},{"Licence number":"LIQC300237176","Licence name":"Mendooran - Merrygoen Memorial Club Co-operative Limited","Address":"58 Bandulla St","Suburb":"MENDOORAN","Postcode":2842,"Latitude":-31.8234,"Longitude":149.1211,"lgaIdNSW":"18020","EGMs":7},{"Licence number":"LIQC300237745","Licence name":"Coolah Sporting Bowling Club","Address":"7 Goddard St","Suburb":"COOLAH","Postcode":2843,"Latitude":-31.8197,"Longitude":149.7183,"lgaIdNSW":"18020","EGMs":12}]
