[{"Licence number":"LIQC300200779","Licence name":"Hellenic Club Limited","Address":"57 Princes Hwy","Suburb":"WEST WOLLONGONG","Postcode":2500,"Latitude":-34.4331,"Longitude":150.8654,"lgaIdNSW":"18450","EGMs":25},{"Licence number":"LIQC300243753","Licence name":"Dapto Leagues Club Limited (Trading as Grange Golf Club)","Address":"10 Kembla Grange Pl","Suburb":"KEMBLA GRANGE","Postcode":2526,"Latitude":-34.4777,"Longitude":150.8116,"lgaIdNSW":"18450","EGMs":5},{"Licence number":"LIQC300243796","Licence name":"Bellambi Bowling Recreation & Sports Club Ltd","Address":"'Rothery' Pioneer Rd & Eastborne St","Suburb":"BELLAMBI","Postcode":2518,"Latitude":-34.3677,"Longitude":150.9101,"lgaIdNSW":"18450","EGMs":42},{"Licence number":"LIQC300243826","Licence name":"Bulli Club Ltd","Address":"313 Princes Hwy","Suburb":"BULLI","Postcode":2516,"Latitude":-34.3381,"Longitude":150.9105,"lgaIdNSW":"18450","EGMs":34},{"Licence number":"LIQC300243834","Licence name":"City of Wollongong Tennis Club","Address":"Beaton Park","Suburb":"GWYNNEVILLE","Postcode":2500,"Latitude":-34.4185,"Longitude":150.8863,"lgaIdNSW":"18450","EGMs":26},{"Licence number":"LIQC300243842","Licence name":"Coledale R S L Club Ltd","Address":"731 Lawrence Hargrave Dr","Suburb":"COLEDALE","Postcode":2515,"Latitude":-34.2912,"Longitude":150.945,"lgaIdNSW":"18450","EGMs":12},{"Licence number":"LIQC300243850","Licence name":"Collegians Rugby League Football Club Ltd","Address":"3A Charlotte St","Suburb":"WOLLONGONG","Postcode":2500,"Latitude":-34.4206,"Longitude":150.8921,"lgaIdNSW":"18450","EGMs":188},{"Licence number":"LIQC300243869","Licence name":"Corrimal Bowling Club","Address":"43-47 Francis St","Suburb":"CORRIMAL","Postcode":2518,"Latitude":-34.3707,"Longitude":150.8929,"lgaIdNSW":"18450","EGMs":16},{"Licence number":"LIQC300243885","Licence name":"Corrimal RSL Memorial Club Ltd","Address":"168 PRINCES HWY","Suburb":"CORRIMAL","Postcode":2518,"Latitude":-34.3707,"Longitude":150.8983,"lgaIdNSW":"18450","EGMs":71},{"Licence number":"LIQC300243893","Licence name":"Dapto Citizens Bowling Club Ltd","Address":"102 Fowlers Rd","Suburb":"DAPTO","Postcode":2530,"Latitude":-34.5001,"Longitude":150.8005,"lgaIdNSW":"18450","EGMs":39},{"Licence number":"LIQC300243907","Licence name":"Dapto Leagues Club Ltd","Address":"Lot 2 & 3 Bong Bong Rd","Suburb":"DAPTO","Postcode":2530,"Latitude":-34.4947,"Longitude":150.7931,"lgaIdNSW":"18450","EGMs":180},{"Licence number":"LIQC300243931","Licence name":"Fairy Meadow Bowling Club","Address":"2 Cambridge Ave","Suburb":"FAIRY MEADOW","Postcode":2519,"Latitude":-34.3923,"Longitude":150.8915,"lgaIdNSW":"18450","EGMs":13},{"Licence number":"LIQC300243958","Licence name":"Fraternity Bowling & Recreation Club Ltd","Address":"11 Bourke St","Suburb":"FAIRY MEADOW","Postcode":2519,"Latitude":-34.3984,"Longitude":150.8938,"lgaIdNSW":"18450","EGMs":137},{"Licence number":"LIQC300243982","Licence name":"Tradies Helensburgh","Address":"Boomerang St","Suburb":"HELENSBURGH","Postcode":2508,"Latitude":-34.1896,"Longitude":150.9796,"lgaIdNSW":"18450","EGMs":49},{"Licence number":"LIQC300244008","Licence name":"Illawarra Leagues Club Ltd","Address":"97-99 Church St","Suburb":"WOLLONGONG","Postcode":2500,"Latitude":-34.4271,"Longitude":150.8952,"lgaIdNSW":"18450","EGMs":57},{"Licence number":"LIQC300244024","Licence name":"Illawarra Master Builders Club Limited","Address":"61 Church St","Suburb":"WOLLONGONG","Postcode":2500,"Latitude":-34.4207,"Longitude":150.8974,"lgaIdNSW":"18450","EGMs":197},{"Licence number":"LIQC300244032","Licence name":"Illawarra Yacht Club Limited","Address":"1 Northcliffe Dr","Suburb":"WARRAWONG","Postcode":2502,"Latitude":-34.4895,"Longitude":150.8858,"lgaIdNSW":"18450","EGMs":92},{"Licence number":"LIQC300244083","Licence name":"Collegians' Orb Bowling Club","Address":"147 The Avenue","Suburb":"FIGTREE","Postcode":2525,"Latitude":-34.4399,"Longitude":150.8631,"lgaIdNSW":"18450","EGMs":8},{"Licence number":"LIQC300244113","Licence name":"Collegians' Port Kembla Leagues Club","Address":"4 Wentworth St","Suburb":"PORT KEMBLA","Postcode":2505,"Latitude":-34.4791,"Longitude":150.9002,"lgaIdNSW":"18450","EGMs":45},{"Licence number":"LIQC300244148","Licence name":"Scarborough - Wombarra Bowling & Recreation Club Limited","Address":"578 Lawrence Hargrave Drive","Suburb":"WOMBARRA","Postcode":2515,"Latitude":-34.2795,"Longitude":150.9532,"lgaIdNSW":"18450","EGMs":7},{"Licence number":"LIQC300244156","Licence name":"Club Thirroul","Address":"Lot 1001 Station St","Suburb":"THIRROUL","Postcode":2515,"Latitude":-34.3191,"Longitude":150.9207,"lgaIdNSW":"18450","EGMs":40},{"Licence number":"LIQC300244180","Licence name":"Towradgi Park Bowls & Recreation Club Limited","Address":"Towradgi Rd","Suburb":"TOWRADGI","Postcode":2518,"Latitude":-34.3852,"Longitude":150.9133,"lgaIdNSW":"18450","EGMs":34},{"Licence number":"LIQC300244199","Licence name":"Western Suburbs Leagues Club Illawarra Ltd","Address":"4 Hargreaves St","Suburb":"UNANDERRA","Postcode":2526,"Latitude":-34.4516,"Longitude":150.8429,"lgaIdNSW":"18450","EGMs":176},{"Licence number":"LIQC300244202","Licence name":"Windang Bowls Club","Address":"2-6 Judbooley Pde","Suburb":"WINDANG","Postcode":2528,"Latitude":-34.533,"Longitude":150.867,"lgaIdNSW":"18450","EGMs":47},{"Licence number":"LIQC300244210","Licence name":"Wiseman Park Wollongong City Bowling Club Limited","Address":"Gipps & Foley Rds","Suburb":"GWYNNEVILLE","Postcode":2500,"Latitude":-34.4171,"Longitude":150.8843,"lgaIdNSW":"18450","EGMs":22},{"Licence number":"LIQC300244245","Licence name":"City Diggers Wollongong","Address":"82 Church St","Suburb":"WOLLONGONG","Postcode":2500,"Latitude":-34.4261,"Longitude":150.8946,"lgaIdNSW":"18450","EGMs":65},{"Licence number":"LIQC300244334","Licence name":"Figtree RSL Bowling Club","Address":"120 The Avenue","Suburb":"FIGTREE","Postcode":2525,"Latitude":-34.4373,"Longitude":150.8647,"lgaIdNSW":"18450","EGMs":60},{"Licence number":"LIQC300244342","Licence name":"Woonona Bowling & Rec Club","Address":"5-9 Greta St","Suburb":"WOONONA","Postcode":2517,"Latitude":-34.3508,"Longitude":150.9088,"lgaIdNSW":"18450","EGMs":16},{"Licence number":"LIQC300244369","Licence name":"Woonona Bulli RSL Memorial Club Limited","Address":"455 Princes Hwy","Suburb":"WOONONA","Postcode":2517,"Latitude":-34.3437,"Longitude":150.9056,"lgaIdNSW":"18450","EGMs":97},{"Licence number":"LIQC300244962","Licence name":"Berkeley Sports Club","Address":"5 WILKINSON ST","Suburb":"BERKELEY","Postcode":2506,"Latitude":-34.4823,"Longitude":150.8475,"lgaIdNSW":"18450","EGMs":127},{"Licence number":"LIQC300245500","Licence name":"AGA Club Germania Ltd","Address":"636A Northcliffe Dr","Suburb":"KEMBLA GRANGE","Postcode":2526,"Latitude":-34.4712,"Longitude":150.8298,"lgaIdNSW":"18450","EGMs":8},{"Licence number":"LIQC300245748","Licence name":"Kemblawarra Portuguese Sports & Social Club Ltd","Address":"156 Shellharbour Rd","Suburb":"PORT KEMBLA","Postcode":2505,"Latitude":-34.4929,"Longitude":150.8925,"lgaIdNSW":"18450","EGMs":25},{"Licence number":"LIQC324002704","Licence name":"Illawarra District Rugby League Football Club Limited","Address":"1-5 Bureli St","Suburb":"WOLLONGONG","Postcode":2500,"Latitude":-34.4275,"Longitude":150.9015,"lgaIdNSW":"18450","EGMs":80},{"Licence number":"LIQC324007348","Licence name":"Collegians RLFC Balgownie","Address":"Balgownie Rd","Suburb":"BALGOWNIE","Postcode":2519,"Latitude":-34.3885,"Longitude":150.8793,"lgaIdNSW":"18450","EGMs":68},{"Licence number":"LIQC324013847","Licence name":"Wollongong Golf Club Limited","Address":"Corrimal St","Suburb":"WOLLONGONG","Postcode":2500,"Latitude":-34.4304,"Longitude":150.8998,"lgaIdNSW":"18450","EGMs":53}]
